[{"id":28484,"name":"ABSCON","postalCode":"59215","inseeCode":"59002","display":"59215 - ABSCON"},{"id":23249,"name":"AVESNES LE SEC","postalCode":"59296","inseeCode":"59038","display":"59296 - AVESNES LE SEC"},{"id":2822,"name":"BELLAING","postalCode":"59135","inseeCode":"59064","display":"59135 - BELLAING"},{"id":23288,"name":"BOUCHAIN","postalCode":"59111","inseeCode":"59092","display":"59111 - BOUCHAIN"},{"id":10149,"name":"BOUSIGNIES","postalCode":"59178","inseeCode":"59100","display":"59178 - BOUSIGNIES"},{"id":28570,"name":"BRILLON","postalCode":"59178","inseeCode":"59109","display":"59178 - BRILLON"},{"id":26748,"name":"BRUILLE ST AMAND","postalCode":"59199","inseeCode":"59114","display":"59199 - BRUILLE ST AMAND"},{"id":2839,"name":"CHATEAU L ABBAYE","postalCode":"59230","inseeCode":"59144","display":"59230 - CHATEAU L ABBAYE"},{"id":10161,"name":"DENAIN","postalCode":"59220","inseeCode":"59172","display":"59220 - DENAIN"},{"id":23349,"name":"DOUCHY LES MINES","postalCode":"59282","inseeCode":"59179","display":"59282 - DOUCHY LES MINES"},{"id":26801,"name":"EMERCHICOURT","postalCode":"59580","inseeCode":"59192","display":"59580 - EMERCHICOURT"},{"id":23364,"name":"ESCAUDAIN","postalCode":"59124","inseeCode":"59205","display":"59124 - ESCAUDAIN"},{"id":10167,"name":"ESCAUTPONT","postalCode":"59278","inseeCode":"59207","display":"59278 - ESCAUTPONT"},{"id":23378,"name":"FLINES LES MORTAGNE","postalCode":"59158","inseeCode":"59238","display":"59158 - FLINES LES MORTAGNE"},{"id":10180,"name":"HASNON","postalCode":"59178","inseeCode":"59284","display":"59178 - HASNON"},{"id":26859,"name":"HASPRES","postalCode":"59198","inseeCode":"59285","display":"59198 - HASPRES"},{"id":2869,"name":"HAULCHIN","postalCode":"59121","inseeCode":"59288","display":"59121 - HAULCHIN"},{"id":28721,"name":"HAVELUY","postalCode":"59255","inseeCode":"59292","display":"59255 - HAVELUY"},{"id":10182,"name":"HELESMES","postalCode":"59171","inseeCode":"59297","display":"59171 - HELESMES"},{"id":2872,"name":"HERIN","postalCode":"59195","inseeCode":"59302","display":"59195 - HERIN"},{"id":26886,"name":"HORDAIN","postalCode":"59111","inseeCode":"59313","display":"59111 - HORDAIN"},{"id":28887,"name":"LA SENTINELLE","postalCode":"59174","inseeCode":"59564","display":"59174 - LA SENTINELLE"},{"id":26918,"name":"LECELLES","postalCode":"59226","inseeCode":"59335","display":"59226 - LECELLES"},{"id":28751,"name":"LIEU ST AMAND","postalCode":"59111","inseeCode":"59348","display":"59111 - LIEU ST AMAND"},{"id":26937,"name":"LOURCHES","postalCode":"59156","inseeCode":"59361","display":"59156 - LOURCHES"},{"id":26945,"name":"MARQUETTE EN OSTREVANT","postalCode":"59252","inseeCode":"59387","display":"59252 - MARQUETTE EN OSTREVANT"},{"id":23453,"name":"MASTAING","postalCode":"59172","inseeCode":"59391","display":"59172 - MASTAING"},{"id":10201,"name":"MAULDE","postalCode":"59158","inseeCode":"59393","display":"59158 - MAULDE"},{"id":28786,"name":"MILLONFOSSE","postalCode":"59178","inseeCode":"59403","display":"59178 - MILLONFOSSE"},{"id":28794,"name":"MORTAGNE DU NORD","postalCode":"59158","inseeCode":"59418","display":"59158 - MORTAGNE DU NORD"},{"id":10208,"name":"NEUVILLE SUR ESCAUT","postalCode":"59293","inseeCode":"59429","display":"59293 - NEUVILLE SUR ESCAUT"},{"id":10209,"name":"NIVELLE","postalCode":"59230","inseeCode":"59434","display":"59230 - NIVELLE"},{"id":2902,"name":"NOYELLES SUR SELLE","postalCode":"59282","inseeCode":"59440","display":"59282 - NOYELLES SUR SELLE"},{"id":26980,"name":"OISY","postalCode":"59195","inseeCode":"59446","display":"59195 - OISY"},{"id":28837,"name":"RAISMES","postalCode":"59590","inseeCode":"59491","display":"59590 - RAISMES"},{"id":10221,"name":"ROEULX","postalCode":"59172","inseeCode":"59504","display":"59172 - ROEULX"},{"id":27042,"name":"ROSULT","postalCode":"59230","inseeCode":"59511","display":"59230 - ROSULT"},{"id":28859,"name":"RUMEGIES","postalCode":"59226","inseeCode":"59519","display":"59226 - RUMEGIES"},{"id":23526,"name":"SARS ET ROSIERES","postalCode":"59230","inseeCode":"59554","display":"59230 - SARS ET ROSIERES"},{"id":27057,"name":"ST AMAND LES EAUX","postalCode":"59230","inseeCode":"59526","display":"59230 - ST AMAND LES EAUX"},{"id":27129,"name":"THIANT","postalCode":"59224","inseeCode":"59589","display":"59224 - THIANT"},{"id":23545,"name":"THUN ST AMAND","postalCode":"59158","inseeCode":"59594","display":"59158 - THUN ST AMAND"},{"id":28914,"name":"TRITH ST LEGER","postalCode":"59125","inseeCode":"59603","display":"59125 - TRITH ST LEGER"},{"id":2940,"name":"WALLERS","postalCode":"59135","inseeCode":"59632","display":"59135 - WALLERS"},{"id":23585,"name":"WASNES AU BAC","postalCode":"59252","inseeCode":"59645","display":"59252 - WASNES AU BAC"},{"id":23595,"name":"WAVRECHAIN SOUS DENAIN","postalCode":"59220","inseeCode":"59651","display":"59220 - WAVRECHAIN SOUS DENAIN"},{"id":2945,"name":"WAVRECHAIN SOUS FAULX","postalCode":"59111","inseeCode":"59652","display":"59111 - WAVRECHAIN SOUS FAULX"}]