[{"id":2809,"name":"AMFROIPRET","postalCode":"59144","inseeCode":"59006","display":"59144 - AMFROIPRET"},{"id":2816,"name":"AUDIGNIES","postalCode":"59570","inseeCode":"59031","display":"59570 - AUDIGNIES"},{"id":23256,"name":"BAVAY","postalCode":"59570","inseeCode":"59053","display":"59570 - BAVAY"},{"id":28525,"name":"BEAUDIGNIES","postalCode":"59530","inseeCode":"59057","display":"59530 - BEAUDIGNIES"},{"id":10145,"name":"BELLIGNIES","postalCode":"59570","inseeCode":"59065","display":"59570 - BELLIGNIES"},{"id":23277,"name":"BERMERIES","postalCode":"59570","inseeCode":"59070","display":"59570 - BERMERIES"},{"id":26718,"name":"BETTRECHIES","postalCode":"59570","inseeCode":"59077","display":"59570 - BETTRECHIES"},{"id":26741,"name":"BOUSIES","postalCode":"59222","inseeCode":"59099","display":"59222 - BOUSIES"},{"id":2829,"name":"BRY","postalCode":"59144","inseeCode":"59116","display":"59144 - BRY"},{"id":26774,"name":"CROIX CALUYAU","postalCode":"59222","inseeCode":"59164","display":"59222 - CROIX CALUYAU"},{"id":28631,"name":"ENGLEFONTAINE","postalCode":"59530","inseeCode":"59194","display":"59530 - ENGLEFONTAINE"},{"id":28636,"name":"ETH","postalCode":"59144","inseeCode":"59217","display":"59144 - ETH"},{"id":10172,"name":"FONTAINE AU BOIS","postalCode":"59550","inseeCode":"59242","display":"59550 - FONTAINE AU BOIS"},{"id":28660,"name":"FOREST EN CAMBRESIS","postalCode":"59222","inseeCode":"59246","display":"59222 - FOREST EN CAMBRESIS"},{"id":28668,"name":"FRASNOY","postalCode":"59530","inseeCode":"59251","display":"59530 - FRASNOY"},{"id":28678,"name":"GHISSIGNIES","postalCode":"59530","inseeCode":"59259","display":"59530 - GHISSIGNIES"},{"id":23390,"name":"GOMMEGNIES","postalCode":"59144","inseeCode":"59265","display":"59144 - GOMMEGNIES"},{"id":10179,"name":"GUSSIGNIES","postalCode":"59570","inseeCode":"59277","display":"59570 - GUSSIGNIES"},{"id":28709,"name":"HARGNIES","postalCode":"59138","inseeCode":"59283","display":"59138 - HARGNIES"},{"id":2870,"name":"HECQ","postalCode":"59530","inseeCode":"59296","display":"59530 - HECQ"},{"id":10186,"name":"HON HERGIES","postalCode":"59570","inseeCode":"59310","display":"59570 - HON HERGIES"},{"id":26890,"name":"HOUDAIN LEZ BAVAY","postalCode":"59570","inseeCode":"59315","display":"59570 - HOUDAIN LEZ BAVAY"},{"id":23417,"name":"JENLAIN","postalCode":"59144","inseeCode":"59323","display":"59144 - JENLAIN"},{"id":26904,"name":"JOLIMETZ","postalCode":"59530","inseeCode":"59325","display":"59530 - JOLIMETZ"},{"id":28653,"name":"LA FLAMENGRIE","postalCode":"59570","inseeCode":"59232","display":"59570 - LA FLAMENGRIE"},{"id":23438,"name":"LA LONGUEVILLE","postalCode":"59570","inseeCode":"59357","display":"59570 - LA LONGUEVILLE"},{"id":26915,"name":"LANDRECIES","postalCode":"59550","inseeCode":"59331","display":"59550 - LANDRECIES"},{"id":28642,"name":"LE FAVRIL","postalCode":"59550","inseeCode":"59223","display":"59550 - LE FAVRIL"},{"id":10215,"name":"LE QUESNOY","postalCode":"59530","inseeCode":"59481","display":"59530 - LE QUESNOY"},{"id":10193,"name":"LOCQUIGNOL","postalCode":"59530","inseeCode":"59353","display":"59530 - LOCQUIGNOL"},{"id":26941,"name":"LOUVIGNIES QUESNOY","postalCode":"59530","inseeCode":"59363","display":"59530 - LOUVIGNIES QUESNOY"},{"id":23444,"name":"MARESCHES","postalCode":"59990","inseeCode":"59381","display":"59990 - MARESCHES"},{"id":2888,"name":"MAROILLES","postalCode":"59550","inseeCode":"59384","display":"59550 - MAROILLES"},{"id":10202,"name":"MECQUIGNIES","postalCode":"59570","inseeCode":"59396","display":"59570 - MECQUIGNIES"},{"id":2897,"name":"NEUVILLE EN AVESNOIS","postalCode":"59218","inseeCode":"59425","display":"59218 - NEUVILLE EN AVESNOIS"},{"id":2903,"name":"OBIES","postalCode":"59570","inseeCode":"59441","display":"59570 - OBIES"},{"id":10210,"name":"ORSINVAL","postalCode":"59530","inseeCode":"59451","display":"59530 - ORSINVAL"},{"id":23483,"name":"POIX DU NORD","postalCode":"59218","inseeCode":"59464","display":"59218 - POIX DU NORD"},{"id":27004,"name":"POTELLE","postalCode":"59530","inseeCode":"59468","display":"59530 - POTELLE"},{"id":10213,"name":"PREUX AU BOIS","postalCode":"59288","inseeCode":"59472","display":"59288 - PREUX AU BOIS"},{"id":27012,"name":"PREUX AU SART","postalCode":"59144","inseeCode":"59473","display":"59144 - PREUX AU SART"},{"id":2916,"name":"RAUCOURT AU BOIS","postalCode":"59530","inseeCode":"59494","display":"59530 - RAUCOURT AU BOIS"},{"id":27038,"name":"ROBERSART","postalCode":"59550","inseeCode":"59503","display":"59550 - ROBERSART"},{"id":10223,"name":"RUESNES","postalCode":"59530","inseeCode":"59518","display":"59530 - RUESNES"},{"id":10226,"name":"SALESCHES","postalCode":"59218","inseeCode":"59549","display":"59218 - SALESCHES"},{"id":23532,"name":"SEPMERIES","postalCode":"59269","inseeCode":"59565","display":"59269 - SEPMERIES"},{"id":28875,"name":"ST WAAST","postalCode":"59570","inseeCode":"59548","display":"59570 - ST WAAST"},{"id":2935,"name":"TAISNIERES SUR HON","postalCode":"59570","inseeCode":"59584","display":"59570 - TAISNIERES SUR HON"},{"id":23557,"name":"VENDEGIES AU BOIS","postalCode":"59218","inseeCode":"59607","display":"59218 - VENDEGIES AU BOIS"},{"id":10238,"name":"VILLEREAU","postalCode":"59530","inseeCode":"59619","display":"59530 - VILLEREAU"},{"id":10240,"name":"VILLERS POL","postalCode":"59530","inseeCode":"59626","display":"59530 - VILLERS POL"},{"id":10244,"name":"WARGNIES LE GRAND","postalCode":"59144","inseeCode":"59639","display":"59144 - WARGNIES LE GRAND"},{"id":28936,"name":"WARGNIES LE PETIT","postalCode":"59144","inseeCode":"59640","display":"59144 - WARGNIES LE PETIT"}]