[{"id":28490,"name":"ANICHE","postalCode":"59580","inseeCode":"59008","display":"59580 - ANICHE"},{"id":2814,"name":"AUBERCHICOURT","postalCode":"59165","inseeCode":"59024","display":"59165 - AUBERCHICOURT"},{"id":10150,"name":"BRUILLE LEZ MARCHIENNES","postalCode":"59490","inseeCode":"59113","display":"59490 - BRUILLE LEZ MARCHIENNES"},{"id":10164,"name":"ECAILLON","postalCode":"59176","inseeCode":"59185","display":"59176 - ECAILLON"},{"id":28633,"name":"ERRE","postalCode":"59171","inseeCode":"59203","display":"59171 - ERRE"},{"id":2860,"name":"FENAIN","postalCode":"59179","inseeCode":"59227","display":"59179 - FENAIN"},{"id":23411,"name":"HORNAING","postalCode":"59171","inseeCode":"59314","display":"59171 - HORNAING"},{"id":26926,"name":"LEWARDE","postalCode":"59287","inseeCode":"59345","display":"59287 - LEWARDE"},{"id":28762,"name":"LOFFRE","postalCode":"59182","inseeCode":"59354","display":"59182 - LOFFRE"},{"id":2885,"name":"MARCHIENNES","postalCode":"59870","inseeCode":"59375","display":"59870 - MARCHIENNES"},{"id":23450,"name":"MASNY","postalCode":"59176","inseeCode":"59390","display":"59176 - MASNY"},{"id":10204,"name":"MONCHECOURT","postalCode":"59234","inseeCode":"59409","display":"59234 - MONCHECOURT"},{"id":23465,"name":"MONTIGNY EN OSTREVENT","postalCode":"59182","inseeCode":"59414","display":"59182 - MONTIGNY EN OSTREVENT"},{"id":2909,"name":"PECQUENCOURT","postalCode":"59146","inseeCode":"59456","display":"59146 - PECQUENCOURT"},{"id":28849,"name":"RIEULAY","postalCode":"59870","inseeCode":"59501","display":"59870 - RIEULAY"},{"id":27109,"name":"SOMAIN","postalCode":"59490","inseeCode":"59574","display":"59490 - SOMAIN"},{"id":23548,"name":"TILLOY LEZ MARCHIENNES","postalCode":"59870","inseeCode":"59596","display":"59870 - TILLOY LEZ MARCHIENNES"},{"id":28930,"name":"VRED","postalCode":"59870","inseeCode":"59629","display":"59870 - VRED"},{"id":10243,"name":"WANDIGNIES HAMAGE","postalCode":"59870","inseeCode":"59637","display":"59870 - WANDIGNIES HAMAGE"},{"id":2943,"name":"WARLAING","postalCode":"59870","inseeCode":"59642","display":"59870 - WARLAING"}]