[{"id":10136,"name":"ABANCOURT","postalCode":"59268","inseeCode":"59001","display":"59268 - ABANCOURT"},{"id":26666,"name":"ANNEUX","postalCode":"59400","inseeCode":"59010","display":"59400 - ANNEUX"},{"id":28501,"name":"AUBENCHEUL AU BAC","postalCode":"59265","inseeCode":"59023","display":"59265 - AUBENCHEUL AU BAC"},{"id":26687,"name":"AWOINGT","postalCode":"59400","inseeCode":"59039","display":"59400 - AWOINGT"},{"id":26693,"name":"BANTEUX","postalCode":"59266","inseeCode":"59047","display":"59266 - BANTEUX"},{"id":26696,"name":"BANTIGNY","postalCode":"59554","inseeCode":"59048","display":"59554 - BANTIGNY"},{"id":10141,"name":"BANTOUZELLE","postalCode":"59266","inseeCode":"59049","display":"59266 - BANTOUZELLE"},{"id":26733,"name":"BLECOURT","postalCode":"59268","inseeCode":"59085","display":"59268 - BLECOURT"},{"id":28556,"name":"BOURSIES","postalCode":"59400","inseeCode":"59097","display":"59400 - BOURSIES"},{"id":23310,"name":"CAGNONCLES","postalCode":"59161","inseeCode":"59121","display":"59161 - CAGNONCLES"},{"id":10151,"name":"CAMBRAI","postalCode":"59400","inseeCode":"59122","display":"59400 - CAMBRAI"},{"id":2830,"name":"CANTAING SUR ESCAUT","postalCode":"59267","inseeCode":"59125","display":"59267 - CANTAING SUR ESCAUT"},{"id":2837,"name":"CAUROIR","postalCode":"59400","inseeCode":"59141","display":"59400 - CAUROIR"},{"id":26767,"name":"CREVECOEUR SUR L ESCAUT","postalCode":"59258","inseeCode":"59161","display":"59258 - CREVECOEUR SUR L ESCAUT"},{"id":10160,"name":"CUVILLERS","postalCode":"59268","inseeCode":"59167","display":"59268 - CUVILLERS"},{"id":2845,"name":"DOIGNIES","postalCode":"59400","inseeCode":"59176","display":"59400 - DOIGNIES"},{"id":2853,"name":"ESCAUDOEUVRES","postalCode":"59161","inseeCode":"59206","display":"59161 - ESCAUDOEUVRES"},{"id":2854,"name":"ESNES","postalCode":"59127","inseeCode":"59209","display":"59127 - ESNES"},{"id":2859,"name":"ESTRUN","postalCode":"59295","inseeCode":"59219","display":"59295 - ESTRUN"},{"id":26823,"name":"ESWARS","postalCode":"59161","inseeCode":"59216","display":"59161 - ESWARS"},{"id":28657,"name":"FLESQUIERES","postalCode":"59267","inseeCode":"59236","display":"59267 - FLESQUIERES"},{"id":26837,"name":"FONTAINE NOTRE DAME","postalCode":"59400","inseeCode":"59244","display":"59400 - FONTAINE NOTRE DAME"},{"id":26844,"name":"FRESSIES","postalCode":"59268","inseeCode":"59255","display":"59268 - FRESSIES"},{"id":23393,"name":"GONNELIEU","postalCode":"59231","inseeCode":"59267","display":"59231 - GONNELIEU"},{"id":23396,"name":"GOUZEAUCOURT","postalCode":"59231","inseeCode":"59269","display":"59231 - GOUZEAUCOURT"},{"id":26867,"name":"HAYNECOURT","postalCode":"59268","inseeCode":"59294","display":"59268 - HAYNECOURT"},{"id":10183,"name":"HEM LENGLET","postalCode":"59247","inseeCode":"59300","display":"59247 - HEM LENGLET"},{"id":10187,"name":"HONNECOURT SUR ESCAUT","postalCode":"59266","inseeCode":"59312","display":"59266 - HONNECOURT SUR ESCAUT"},{"id":28732,"name":"IWUY","postalCode":"59141","inseeCode":"59322","display":"59141 - IWUY"},{"id":28747,"name":"LESDAIN","postalCode":"59258","inseeCode":"59341","display":"59258 - LESDAIN"},{"id":27050,"name":"LES RUES DES VIGNES","postalCode":"59258","inseeCode":"59517","display":"59258 - LES RUES DES VIGNES"},{"id":10199,"name":"MARCOING","postalCode":"59159","inseeCode":"59377","display":"59159 - MARCOING"},{"id":2890,"name":"MASNIERES","postalCode":"59241","inseeCode":"59389","display":"59241 - MASNIERES"},{"id":23460,"name":"MOEUVRES","postalCode":"59400","inseeCode":"59405","display":"59400 - MOEUVRES"},{"id":10207,"name":"NAVES","postalCode":"59161","inseeCode":"59422","display":"59161 - NAVES"},{"id":2898,"name":"NEUVILLE ST REMY","postalCode":"59554","inseeCode":"59428","display":"59554 - NEUVILLE ST REMY"},{"id":26972,"name":"NIERGNIES","postalCode":"59400","inseeCode":"59432","display":"59400 - NIERGNIES"},{"id":28807,"name":"NOYELLES SUR ESCAUT","postalCode":"59159","inseeCode":"59438","display":"59159 - NOYELLES SUR ESCAUT"},{"id":2908,"name":"PAILLENCOURT","postalCode":"59295","inseeCode":"59455","display":"59295 - PAILLENCOURT"},{"id":27023,"name":"PROVILLE","postalCode":"59267","inseeCode":"59476","display":"59267 - PROVILLE"},{"id":10217,"name":"RAILLENCOURT STE OLLE","postalCode":"59554","inseeCode":"59488","display":"59554 - RAILLENCOURT STE OLLE"},{"id":2915,"name":"RAMILLIES","postalCode":"59161","inseeCode":"59492","display":"59161 - RAMILLIES"},{"id":28846,"name":"RIBECOURT LA TOUR","postalCode":"59159","inseeCode":"59500","display":"59159 - RIBECOURT LA TOUR"},{"id":23494,"name":"RIEUX EN CAMBRESIS","postalCode":"59277","inseeCode":"59502","display":"59277 - RIEUX EN CAMBRESIS"},{"id":27054,"name":"RUMILLY EN CAMBRESIS","postalCode":"59281","inseeCode":"59520","display":"59281 - RUMILLY EN CAMBRESIS"},{"id":23509,"name":"SAILLY LEZ CAMBRAI","postalCode":"59554","inseeCode":"59521","display":"59554 - SAILLY LEZ CAMBRAI"},{"id":27083,"name":"SANCOURT","postalCode":"59268","inseeCode":"59552","display":"59268 - SANCOURT"},{"id":23537,"name":"SERANVILLERS FORENVILLE","postalCode":"59400","inseeCode":"59567","display":"59400 - SERANVILLERS FORENVILLE"},{"id":28909,"name":"THUN L EVEQUE","postalCode":"59141","inseeCode":"59593","display":"59141 - THUN L EVEQUE"},{"id":10233,"name":"THUN ST MARTIN","postalCode":"59141","inseeCode":"59595","display":"59141 - THUN ST MARTIN"},{"id":27133,"name":"TILLOY LEZ CAMBRAI","postalCode":"59554","inseeCode":"59597","display":"59554 - TILLOY LEZ CAMBRAI"},{"id":23572,"name":"VILLERS EN CAUCHIES","postalCode":"59188","inseeCode":"59622","display":"59188 - VILLERS EN CAUCHIES"},{"id":2938,"name":"VILLERS GUISLAIN","postalCode":"59297","inseeCode":"59623","display":"59297 - VILLERS GUISLAIN"},{"id":10239,"name":"VILLERS PLOUICH","postalCode":"59231","inseeCode":"59625","display":"59231 - VILLERS PLOUICH"},{"id":23582,"name":"WAMBAIX","postalCode":"59400","inseeCode":"59635","display":"59400 - WAMBAIX"}]