[{"id":26657,"name":"ALLENNES LES MARAIS","postalCode":"59251","inseeCode":"59005","lonX":2.948281673,"latY":50.541448519},{"id":26670,"name":"ANNOEULLIN","postalCode":"59112","inseeCode":"59011","lonX":2.927412205,"latY":50.526085176},{"id":28494,"name":"ANSTAING","postalCode":"59152","inseeCode":"59013","lonX":3.189114281,"latY":50.603632324},{"id":10138,"name":"ARMENTIERES","postalCode":"59280","inseeCode":"59017","lonX":2.88000046,"latY":50.691261577},{"id":26677,"name":"AUBERS","postalCode":"59249","inseeCode":"59025","lonX":2.819846481,"latY":50.595955527},{"id":23252,"name":"BAISIEUX","postalCode":"59780","inseeCode":"59044","lonX":3.241371993,"latY":50.610931234},{"id":23254,"name":"BAUVIN","postalCode":"59221","inseeCode":"59052","lonX":2.893236267,"latY":50.515851898},{"id":10143,"name":"BEAUCAMPS LIGNY","postalCode":"59134","inseeCode":"59056","lonX":2.914387437,"latY":50.606252474},{"id":28544,"name":"BOIS GRENIER","postalCode":"59280","inseeCode":"59088","lonX":2.872386058,"latY":50.649100483},{"id":28552,"name":"BONDUES","postalCode":"59910","inseeCode":"59090","lonX":3.095631412,"latY":50.709916344},{"id":2826,"name":"BOUSBECQUE","postalCode":"59166","inseeCode":"59098","lonX":3.074784102,"latY":50.763611326},{"id":23300,"name":"BOUVINES","postalCode":"59830","inseeCode":"59106","lonX":3.186517632,"latY":50.581849145},{"id":2833,"name":"CAPINGHEM","postalCode":"59160","inseeCode":"59128","lonX":2.964530692,"latY":50.647074745},{"id":10152,"name":"CARNIN","postalCode":"59112","inseeCode":"59133","lonX":2.960551735,"latY":50.519303864},{"id":2840,"name":"CHERENG","postalCode":"59152","inseeCode":"59146","lonX":3.209590906,"latY":50.610860315},{"id":23323,"name":"COMINES","postalCode":"59560","inseeCode":"59152","lonX":3.016824453,"latY":50.749913917},{"id":10158,"name":"CROIX","postalCode":"59170","inseeCode":"59163","lonX":3.15522784,"latY":50.673797261},{"id":2844,"name":"DEULEMONT","postalCode":"59890","inseeCode":"59173","lonX":2.970139963,"latY":50.728346106},{"id":2948,"name":"DON","postalCode":"59272","inseeCode":"59670","lonX":2.915576552,"latY":50.544523371},{"id":28628,"name":"EMMERIN","postalCode":"59320","inseeCode":"59193","lonX":3.005146823,"latY":50.591061091},{"id":23357,"name":"ENGLOS","postalCode":"59320","inseeCode":"59195","lonX":2.956534954,"latY":50.626250676},{"id":10166,"name":"ENNETIERES EN WEPPES","postalCode":"59320","inseeCode":"59196","lonX":2.932540955,"latY":50.640391101},{"id":23362,"name":"ERQUINGHEM LE SEC","postalCode":"59320","inseeCode":"59201","lonX":2.933253179,"latY":50.610807339},{"id":2852,"name":"ERQUINGHEM LYS","postalCode":"59193","inseeCode":"59202","lonX":2.840537745,"latY":50.670343821},{"id":26813,"name":"ESCOBECQUES","postalCode":"59320","inseeCode":"59208","lonX":2.932998235,"latY":50.62162668},{"id":23370,"name":"FACHES THUMESNIL","postalCode":"59155","inseeCode":"59220","lonX":3.072334604,"latY":50.594107157},{"id":10174,"name":"FOREST SUR MARQUE","postalCode":"59510","inseeCode":"59247","lonX":3.188403086,"latY":50.632958162},{"id":10175,"name":"FOURNES EN WEPPES","postalCode":"59134","inseeCode":"59250","lonX":2.893117484,"latY":50.59193115},{"id":26841,"name":"FRELINGHIEN","postalCode":"59236","inseeCode":"59252","lonX":2.951562376,"latY":50.702966324},{"id":28675,"name":"FRETIN","postalCode":"59273","inseeCode":"59256","lonX":3.132009062,"latY":50.565756773},{"id":23387,"name":"FROMELLES","postalCode":"59249","inseeCode":"59257","lonX":2.85396178,"latY":50.610980406},{"id":26854,"name":"GRUSON","postalCode":"59152","inseeCode":"59275","lonX":3.215762914,"latY":50.59217876},{"id":28702,"name":"HALLENNES LEZ HAUBOURDIN","postalCode":"59320","inseeCode":"59278","lonX":2.954692187,"latY":50.611918219},{"id":26856,"name":"HALLUIN","postalCode":"59250","inseeCode":"59279","lonX":3.126433807,"latY":50.774775768},{"id":28706,"name":"HANTAY","postalCode":"59496","inseeCode":"59281","lonX":2.868538242,"latY":50.537970612},{"id":28712,"name":"HAUBOURDIN","postalCode":"59320","inseeCode":"59286","lonX":2.987062036,"latY":50.604061294},{"id":2871,"name":"HEM","postalCode":"59510","inseeCode":"59299","lonX":3.192810315,"latY":50.655181812},{"id":26875,"name":"HERLIES","postalCode":"59134","inseeCode":"59303","lonX":2.852531678,"latY":50.581618317},{"id":26894,"name":"HOUPLIN ANCOISNE","postalCode":"59263","inseeCode":"59316","lonX":2.994692859,"latY":50.569736712},{"id":23414,"name":"HOUPLINES","postalCode":"59116","inseeCode":"59317","lonX":2.926445799,"latY":50.683959777},{"id":26897,"name":"ILLIES","postalCode":"59480","inseeCode":"59320","lonX":2.828431816,"latY":50.562679745},{"id":2821,"name":"LA BASSEE","postalCode":"59480","inseeCode":"59051","lonX":2.80942591,"latY":50.540018224},{"id":2838,"name":"LA CHAPELLE D ARMENTIERES","postalCode":"59930","inseeCode":"59143","lonX":2.895496449,"latY":50.665856348},{"id":10194,"name":"LA MADELEINE","postalCode":"59110","inseeCode":"59368","lonX":3.069972562,"latY":50.654409231},{"id":23420,"name":"LAMBERSART","postalCode":"59130","inseeCode":"59328","lonX":3.025332294,"latY":50.652087009},{"id":28740,"name":"LANNOY","postalCode":"59390","inseeCode":"59332","lonX":3.210297134,"latY":50.666201415},{"id":26922,"name":"LEERS","postalCode":"59115","inseeCode":"59339","lonX":3.239968188,"latY":50.68145921},{"id":10196,"name":"LE MAISNIL","postalCode":"59134","inseeCode":"59371","lonX":2.876996109,"latY":50.617991971},{"id":23428,"name":"LESQUIN","postalCode":"59810","inseeCode":"59343","lonX":3.112215288,"latY":50.589514192},{"id":26930,"name":"LEZENNES","postalCode":"59260","inseeCode":"59346","lonX":3.11761991,"latY":50.611789985},{"id":2878,"name":"LILLE","postalCode":"59777","inseeCode":"59350","lonX":3.046986424,"latY":50.631855028},{"id":28760,"name":"LINSELLES","postalCode":"59126","inseeCode":"59352","lonX":3.074198692,"latY":50.735762821},{"id":2879,"name":"LOMPRET","postalCode":"59840","inseeCode":"59356","lonX":2.995254092,"latY":50.664044815},{"id":23442,"name":"LOOS","postalCode":"59120","inseeCode":"59360","lonX":3.020086396,"latY":50.608851047},{"id":2883,"name":"LYS LEZ LANNOY","postalCode":"59390","inseeCode":"59367","lonX":3.217063026,"latY":50.672379465},{"id":2886,"name":"MARCQ EN BAROEUL","postalCode":"59700","inseeCode":"59378","lonX":3.10112966,"latY":50.675587872},{"id":28773,"name":"MARQUETTE LEZ LILLE","postalCode":"59520","inseeCode":"59386","lonX":3.059176368,"latY":50.674129981},{"id":2889,"name":"MARQUILLIES","postalCode":"59274","inseeCode":"59388","lonX":2.868991736,"latY":50.55060117},{"id":10205,"name":"MONS EN BAROEUL","postalCode":"59370","inseeCode":"59410","lonX":3.108170824,"latY":50.643264956},{"id":26960,"name":"MOUVAUX","postalCode":"59420","inseeCode":"59421","lonX":3.13669083,"latY":50.70407588},{"id":26968,"name":"NEUVILLE EN FERRAIN","postalCode":"59960","inseeCode":"59426","lonX":3.159212273,"latY":50.752794096},{"id":23477,"name":"NOYELLES LES SECLIN","postalCode":"59139","inseeCode":"59437","lonX":3.02255928,"latY":50.57302589},{"id":10212,"name":"PERENCHIES","postalCode":"59840","inseeCode":"59457","lonX":2.968732291,"latY":50.67008413},{"id":26991,"name":"PERONNE EN MELANTOIS","postalCode":"59273","inseeCode":"59458","lonX":3.17060432,"latY":50.564287536},{"id":2912,"name":"PREMESQUES","postalCode":"59840","inseeCode":"59470","lonX":2.94863531,"latY":50.660555732},{"id":28822,"name":"PROVIN","postalCode":"59185","inseeCode":"59477","lonX":2.911350424,"latY":50.513151312},{"id":27031,"name":"QUESNOY SUR DEULE","postalCode":"59890","inseeCode":"59482","lonX":3.007155761,"latY":50.713014147},{"id":28833,"name":"RADINGHEM EN WEPPES","postalCode":"59320","inseeCode":"59487","lonX":2.897968384,"latY":50.628486414},{"id":23499,"name":"RONCHIN","postalCode":"59790","inseeCode":"59507","lonX":3.092434195,"latY":50.60484082},{"id":10222,"name":"RONCQ","postalCode":"59223","inseeCode":"59508","lonX":3.117822736,"latY":50.747287101},{"id":27046,"name":"ROUBAIX","postalCode":"59100","inseeCode":"59512","lonX":3.181903136,"latY":50.688368522},{"id":10224,"name":"SAILLY LEZ LANNOY","postalCode":"59390","inseeCode":"59522","lonX":3.227227979,"latY":50.645656283},{"id":23511,"name":"SAINGHIN EN MELANTOIS","postalCode":"59262","inseeCode":"59523","lonX":3.16327875,"latY":50.58778639},{"id":23514,"name":"SAINGHIN EN WEPPES","postalCode":"59184","inseeCode":"59524","lonX":2.897112601,"latY":50.559371089},{"id":2927,"name":"SALOME","postalCode":"59496","inseeCode":"59550","lonX":2.836527114,"latY":50.535957597},{"id":27087,"name":"SANTES","postalCode":"59211","inseeCode":"59553","lonX":2.961285345,"latY":50.590618061},{"id":28883,"name":"SECLIN","postalCode":"59113","inseeCode":"59560","lonX":3.035041999,"latY":50.54656789},{"id":23534,"name":"SEQUEDIN","postalCode":"59320","inseeCode":"59566","lonX":2.981847059,"latY":50.624905854},{"id":2920,"name":"ST ANDRE LEZ LILLE","postalCode":"59350","inseeCode":"59527","lonX":3.047281806,"latY":50.660400714},{"id":27119,"name":"TEMPLEMARS","postalCode":"59175","inseeCode":"59585","lonX":3.060016561,"latY":50.570500481},{"id":10234,"name":"TOUFFLERS","postalCode":"59390","inseeCode":"59598","lonX":3.23260141,"latY":50.66077882},{"id":27137,"name":"TOURCOING","postalCode":"59200","inseeCode":"59599","lonX":3.159652714,"latY":50.725815998},{"id":2936,"name":"TRESSIN","postalCode":"59152","inseeCode":"59602","lonX":3.188521616,"latY":50.61737226},{"id":23560,"name":"VENDEVILLE","postalCode":"59175","inseeCode":"59609","lonX":3.080518035,"latY":50.573075484},{"id":27141,"name":"VERLINGHEM","postalCode":"59237","inseeCode":"59611","lonX":3.00036481,"latY":50.682405022},{"id":2810,"name":"VILLENEUVE D ASCQ","postalCode":"59491","inseeCode":"59009","lonX":3.15312041,"latY":50.632462901},{"id":2941,"name":"WAMBRECHIES","postalCode":"59118","inseeCode":"59636","lonX":3.04704686,"latY":50.695955193},{"id":2944,"name":"WARNETON","postalCode":"59560","inseeCode":"59643","lonX":2.966637991,"latY":50.745246541},{"id":23587,"name":"WASQUEHAL","postalCode":"59290","inseeCode":"59646","lonX":3.127930605,"latY":50.675142829},{"id":23593,"name":"WATTIGNIES","postalCode":"59139","inseeCode":"59648","lonX":3.041495902,"latY":50.586256574},{"id":27159,"name":"WATTRELOS","postalCode":"59150","inseeCode":"59650","lonX":3.216663228,"latY":50.705547602},{"id":23598,"name":"WAVRIN","postalCode":"59136","inseeCode":"59653","lonX":2.933087991,"latY":50.57251799},{"id":28942,"name":"WERVICQ SUD","postalCode":"59117","inseeCode":"59656","lonX":3.05110109,"latY":50.761769254},{"id":23604,"name":"WICRES","postalCode":"59134","inseeCode":"59658","lonX":2.868268575,"latY":50.569113982},{"id":28950,"name":"WILLEMS","postalCode":"59780","inseeCode":"59660","lonX":3.229461372,"latY":50.630714643}]