[{"id":28518,"name":"BAMBECQUE","postalCode":"59470","inseeCode":"59046","lonX":2.560564744,"latY":50.908981137},{"id":26707,"name":"BERGUES","postalCode":"59380","inseeCode":"59067","lonX":2.433542253,"latY":50.969104845},{"id":26725,"name":"BIERNE","postalCode":"59380","inseeCode":"59082","lonX":2.401372304,"latY":50.971082375},{"id":26729,"name":"BISSEZEELE","postalCode":"59380","inseeCode":"59083","lonX":2.406712327,"latY":50.913462143},{"id":28548,"name":"BOLLEZEELE","postalCode":"59470","inseeCode":"59089","lonX":2.341267088,"latY":50.865169343},{"id":28574,"name":"BROUCKERQUE","postalCode":"59630","inseeCode":"59110","lonX":2.287168205,"latY":50.951348142},{"id":2828,"name":"BROXEELE","postalCode":"59470","inseeCode":"59111","lonX":2.320657782,"latY":50.82860491},{"id":28592,"name":"CAPPELLE BROUCK","postalCode":"59630","inseeCode":"59130","lonX":2.221731399,"latY":50.894105106},{"id":26771,"name":"CROCHTE","postalCode":"59380","inseeCode":"59162","lonX":2.395439289,"latY":50.923727418},{"id":2847,"name":"DRINCHAM","postalCode":"59630","inseeCode":"59182","lonX":2.320106549,"latY":50.910454322},{"id":2851,"name":"ERINGHEM","postalCode":"59470","inseeCode":"59200","lonX":2.312537959,"latY":50.889080047},{"id":2855,"name":"ESQUELBECQ","postalCode":"59470","inseeCode":"59210","lonX":2.429163461,"latY":50.890512576},{"id":2873,"name":"HERZEELE","postalCode":"59470","inseeCode":"59305","lonX":2.52966348,"latY":50.881134146},{"id":23408,"name":"HOLQUE","postalCode":"59143","inseeCode":"59307","lonX":2.204693984,"latY":50.855957221},{"id":10185,"name":"HONDSCHOOTE","postalCode":"59122","inseeCode":"59309","lonX":2.588563522,"latY":50.971318935},{"id":28728,"name":"HOYMILLE","postalCode":"59492","inseeCode":"59319","lonX":2.456156247,"latY":50.973066599},{"id":26907,"name":"KILLEM","postalCode":"59122","inseeCode":"59326","lonX":2.560156726,"latY":50.957808984},{"id":10191,"name":"LEDERZEELE","postalCode":"59143","inseeCode":"59337","lonX":2.293526333,"latY":50.813425411},{"id":28743,"name":"LEDRINGHEM","postalCode":"59470","inseeCode":"59338","lonX":2.445264785,"latY":50.861755289},{"id":28766,"name":"LOOBERGHE","postalCode":"59630","inseeCode":"59358","lonX":2.275125393,"latY":50.912654987},{"id":10203,"name":"MERCKEGHEM","postalCode":"59470","inseeCode":"59397","lonX":2.27830539,"latY":50.869718496},{"id":26953,"name":"MILLAM","postalCode":"59143","inseeCode":"59402","lonX":2.251246339,"latY":50.855892482},{"id":2899,"name":"NIEURLET","postalCode":"59143","inseeCode":"59433","lonX":2.280497886,"latY":50.794892194},{"id":23480,"name":"OOST CAPPEL","postalCode":"59122","inseeCode":"59448","lonX":2.589617525,"latY":50.929555986},{"id":27000,"name":"PITGAM","postalCode":"59284","inseeCode":"59463","lonX":2.340573422,"latY":50.930202029},{"id":2913,"name":"QUAEDYPRE","postalCode":"59380","inseeCode":"59478","lonX":2.460229659,"latY":50.938302238},{"id":10220,"name":"REXPOEDE","postalCode":"59122","inseeCode":"59499","lonX":2.54500623,"latY":50.935574553},{"id":23540,"name":"SOCX","postalCode":"59380","inseeCode":"59570","lonX":2.423459523,"latY":50.936444547},{"id":10229,"name":"STEENE","postalCode":"59380","inseeCode":"59579","lonX":2.371741461,"latY":50.953443569},{"id":23520,"name":"ST MOMELIN","postalCode":"59143","inseeCode":"59538","lonX":2.24231842,"latY":50.812234963},{"id":2923,"name":"ST PIERRE BROUCK","postalCode":"59630","inseeCode":"59539","lonX":2.189863034,"latY":50.895415425},{"id":10235,"name":"UXEM","postalCode":"59229","inseeCode":"59605","lonX":2.491554952,"latY":51.024155547},{"id":23577,"name":"VOLCKERINCKHOVE","postalCode":"59470","inseeCode":"59628","lonX":2.297565233,"latY":50.83989265},{"id":2942,"name":"WARHEM","postalCode":"59380","inseeCode":"59641","lonX":2.503118827,"latY":50.97671032},{"id":23590,"name":"WATTEN","postalCode":"59143","inseeCode":"59647","lonX":2.225848168,"latY":50.834642896},{"id":10246,"name":"WEST CAPPEL","postalCode":"59380","inseeCode":"59657","lonX":2.509038798,"latY":50.925675173},{"id":10247,"name":"WORMHOUT","postalCode":"59470","inseeCode":"59663","lonX":2.478673463,"latY":50.87792063},{"id":27163,"name":"WULVERDINGHE","postalCode":"59143","inseeCode":"59664","lonX":2.252899643,"latY":50.828671588},{"id":27167,"name":"WYLDER","postalCode":"59380","inseeCode":"59665","lonX":2.487403748,"latY":50.911533781},{"id":23607,"name":"ZEGERSCAPPEL","postalCode":"59470","inseeCode":"59666","lonX":2.384254392,"latY":50.883327008}]