[{"id":10137,"name":"ANZIN","postalCode":"59410","inseeCode":"59014","lonX":3.510977086,"latY":50.375299666},{"id":28498,"name":"ARTRES","postalCode":"59269","inseeCode":"59019","lonX":3.538042319,"latY":50.295615075},{"id":23243,"name":"AUBRY DU HAINAUT","postalCode":"59494","inseeCode":"59027","lonX":3.452108252,"latY":50.375804067},{"id":28504,"name":"AULNOY LEZ VALENCIENNES","postalCode":"59300","inseeCode":"59032","lonX":3.537508564,"latY":50.325973528},{"id":28536,"name":"BEUVRAGES","postalCode":"59192","inseeCode":"59079","lonX":3.505062148,"latY":50.388798693},{"id":26744,"name":"BRUAY SUR L ESCAUT","postalCode":"59860","inseeCode":"59112","lonX":3.538268654,"latY":50.396996274},{"id":23326,"name":"CONDE SUR L ESCAUT","postalCode":"59163","inseeCode":"59153","lonX":3.605825874,"latY":50.467386453},{"id":23336,"name":"CRESPIN","postalCode":"59154","inseeCode":"59160","lonX":3.651820956,"latY":50.421792112},{"id":10159,"name":"CURGIES","postalCode":"59990","inseeCode":"59166","lonX":3.606168748,"latY":50.325576537},{"id":26820,"name":"ESTREUX","postalCode":"59990","inseeCode":"59215","lonX":3.601686484,"latY":50.35247296},{"id":28639,"name":"FAMARS","postalCode":"59300","inseeCode":"59221","lonX":3.521156457,"latY":50.312145083},{"id":28671,"name":"FRESNES SUR ESCAUT","postalCode":"59970","inseeCode":"59253","lonX":3.57962141,"latY":50.432246528},{"id":28724,"name":"HERGNIES","postalCode":"59199","inseeCode":"59301","lonX":3.53122,"latY":50.480545807},{"id":2884,"name":"MAING","postalCode":"59233","inseeCode":"59369","lonX":3.48848217,"latY":50.303727817},{"id":23447,"name":"MARLY","postalCode":"59770","inseeCode":"59383","lonX":3.549443614,"latY":50.345439639},{"id":2893,"name":"MONCHAUX SUR ECAILLON","postalCode":"59224","inseeCode":"59407","lonX":3.458155463,"latY":50.283760777},{"id":26976,"name":"ODOMEZ","postalCode":"59970","inseeCode":"59444","lonX":3.53948079,"latY":50.448144366},{"id":28813,"name":"ONNAING","postalCode":"59264","inseeCode":"59447","lonX":3.596611533,"latY":50.386016802},{"id":26994,"name":"PETITE FORET","postalCode":"59494","inseeCode":"59459","lonX":3.47636008,"latY":50.375209134},{"id":28818,"name":"PRESEAU","postalCode":"59990","inseeCode":"59471","lonX":3.572503,"latY":50.310755942},{"id":27019,"name":"PROUVY","postalCode":"59121","inseeCode":"59475","lonX":3.457067283,"latY":50.324120232},{"id":27027,"name":"QUAROUBLE","postalCode":"59243","inseeCode":"59479","lonX":3.627740739,"latY":50.402578317},{"id":10214,"name":"QUERENAING","postalCode":"59269","inseeCode":"59480","lonX":3.507928592,"latY":50.284596698},{"id":23488,"name":"QUIEVRECHAIN","postalCode":"59920","inseeCode":"59484","lonX":3.659681295,"latY":50.392552231},{"id":23496,"name":"ROMBIES ET MARCHIPONT","postalCode":"59990","inseeCode":"59505","lonX":3.639736222,"latY":50.368611007},{"id":23507,"name":"ROUVIGNIES","postalCode":"59220","inseeCode":"59515","lonX":3.441137692,"latY":50.333780381},{"id":2928,"name":"SAULTAIN","postalCode":"59990","inseeCode":"59557","lonX":3.579310837,"latY":50.33540267},{"id":2929,"name":"SEBOURG","postalCode":"59990","inseeCode":"59559","lonX":3.645144822,"latY":50.344189769},{"id":27064,"name":"ST AYBERT","postalCode":"59163","inseeCode":"59530","lonX":3.650674236,"latY":50.45114436},{"id":23523,"name":"ST SAULVE","postalCode":"59880","inseeCode":"59544","lonX":3.56628729,"latY":50.375452823},{"id":28905,"name":"THIVENCELLE","postalCode":"59163","inseeCode":"59591","lonX":3.628095041,"latY":50.446075565},{"id":28917,"name":"VALENCIENNES","postalCode":"59300","inseeCode":"59606","lonX":3.516178981,"latY":50.359106458},{"id":23562,"name":"VERCHAIN MAUGRE","postalCode":"59227","inseeCode":"59610","lonX":3.46181649,"latY":50.266169491},{"id":27144,"name":"VICQ","postalCode":"59970","inseeCode":"59613","lonX":3.60821646,"latY":50.413882472},{"id":10237,"name":"VIEUX CONDE","postalCode":"59690","inseeCode":"59616","lonX":3.566197542,"latY":50.473649591}]