[{"id":28486,"name":"ANHIERS","postalCode":"59194","inseeCode":"59007","lonX":3.155435452,"latY":50.404075435},{"id":26673,"name":"ARLEUX","postalCode":"59151","inseeCode":"59015","lonX":3.112754755,"latY":50.281849972},{"id":26680,"name":"AUBIGNY AU BAC","postalCode":"59265","inseeCode":"59026","lonX":3.168315967,"latY":50.265730126},{"id":23246,"name":"AUBY","postalCode":"59950","inseeCode":"59028","lonX":3.06131615,"latY":50.414188077},{"id":23308,"name":"BRUNEMONT","postalCode":"59151","inseeCode":"59115","lonX":3.144385211,"latY":50.274244113},{"id":26751,"name":"BUGNICOURT","postalCode":"59151","inseeCode":"59117","lonX":3.154843207,"latY":50.290504119},{"id":2831,"name":"CANTIN","postalCode":"59169","inseeCode":"59126","lonX":3.124206571,"latY":50.309968205},{"id":10157,"name":"COURCHELETTES","postalCode":"59552","inseeCode":"59156","lonX":3.059746779,"latY":50.34282752},{"id":23339,"name":"CUINCY","postalCode":"59553","inseeCode":"59165","lonX":3.034039062,"latY":50.374057404},{"id":23346,"name":"DECHY","postalCode":"59187","inseeCode":"59170","lonX":3.130353838,"latY":50.350105804},{"id":26782,"name":"DOUAI","postalCode":"59500","inseeCode":"59178","lonX":3.090847987,"latY":50.381769741},{"id":26805,"name":"ERCHIN","postalCode":"59169","inseeCode":"59199","lonX":3.173152316,"latY":50.316616217},{"id":2856,"name":"ESQUERCHIN","postalCode":"59553","inseeCode":"59211","lonX":3.007377131,"latY":50.38546484},{"id":2858,"name":"ESTREES","postalCode":"59151","inseeCode":"59214","lonX":3.075418436,"latY":50.297717108},{"id":10168,"name":"FAUMONT","postalCode":"59310","inseeCode":"59222","lonX":3.135230719,"latY":50.453564522},{"id":26826,"name":"FECHAIN","postalCode":"59247","inseeCode":"59224","lonX":3.212043612,"latY":50.268780815},{"id":23375,"name":"FERIN","postalCode":"59169","inseeCode":"59228","lonX":3.080676584,"latY":50.331143481},{"id":10170,"name":"FLERS EN ESCREBIEUX","postalCode":"59128","inseeCode":"59234","lonX":3.051233202,"latY":50.401393869},{"id":23381,"name":"FLINES LEZ RACHES","postalCode":"59148","inseeCode":"59239","lonX":3.182022943,"latY":50.417046849},{"id":2863,"name":"FRESSAIN","postalCode":"59234","inseeCode":"59254","lonX":3.191972225,"latY":50.283243078},{"id":28688,"name":"GOEULZIN","postalCode":"59169","inseeCode":"59263","lonX":3.098811991,"latY":50.318642225},{"id":28698,"name":"GUESNAIN","postalCode":"59287","inseeCode":"59276","lonX":3.147687928,"latY":50.348279616},{"id":23399,"name":"HAMEL","postalCode":"59151","inseeCode":"59280","lonX":3.067970781,"latY":50.282554648},{"id":26911,"name":"LALLAING","postalCode":"59167","inseeCode":"59327","lonX":3.168747012,"latY":50.386401575},{"id":28736,"name":"LAMBRES LEZ DOUAI","postalCode":"59552","inseeCode":"59329","lonX":3.05433299,"latY":50.354350492},{"id":10189,"name":"LAUWIN PLANQUE","postalCode":"59553","inseeCode":"59334","lonX":3.029810492,"latY":50.392781297},{"id":10190,"name":"LECLUSE","postalCode":"59259","inseeCode":"59336","lonX":3.03027307,"latY":50.276932391},{"id":2887,"name":"MARCQ EN OSTREVENT","postalCode":"59252","inseeCode":"59379","lonX":3.23491565,"latY":50.287941631},{"id":2914,"name":"RACHES","postalCode":"59194","inseeCode":"59486","lonX":3.137003448,"latY":50.420150014},{"id":27034,"name":"RAIMBEAUCOURT","postalCode":"59283","inseeCode":"59489","lonX":3.102349314,"latY":50.436444162},{"id":23502,"name":"ROOST WARENDIN","postalCode":"59286","inseeCode":"59509","lonX":3.103844152,"latY":50.415046577},{"id":28856,"name":"ROUCOURT","postalCode":"59169","inseeCode":"59513","lonX":3.146382202,"latY":50.327885674},{"id":2930,"name":"SIN LE NOBLE","postalCode":"59450","inseeCode":"59569","lonX":3.120348325,"latY":50.367662255},{"id":23569,"name":"VILLERS AU TERTRE","postalCode":"59234","inseeCode":"59620","lonX":3.176215572,"latY":50.302075373},{"id":23601,"name":"WAZIERS","postalCode":"59119","inseeCode":"59654","lonX":3.112156644,"latY":50.385120937}]