[{"id":2812,"name":"ARMBOUTS CAPPEL","postalCode":"59380","inseeCode":"59016","lonX":2.348154048,"latY":50.982089528},{"id":23296,"name":"BOURBOURG","postalCode":"59630","inseeCode":"59094","lonX":2.203560525,"latY":50.942528354},{"id":23302,"name":"BRAY DUNES","postalCode":"59123","inseeCode":"59107","lonX":2.527080138,"latY":51.072905786},{"id":2834,"name":"CAPPELLE LA GRANDE","postalCode":"59180","inseeCode":"59131","lonX":2.369123346,"latY":50.996178663},{"id":23329,"name":"COUDEKERQUE BRANCHE","postalCode":"59210","inseeCode":"59155","lonX":2.394882986,"latY":51.017838468},{"id":23333,"name":"CRAYWICK","postalCode":"59279","inseeCode":"59159","lonX":2.22174968,"latY":50.972608761},{"id":2848,"name":"DUNKERQUE","postalCode":"59240","inseeCode":"59183","lonX":2.33669497,"latY":51.030110046},{"id":2865,"name":"GHYVELDE","postalCode":"59254","inseeCode":"59260","lonX":2.531240053,"latY":51.035444164},{"id":28695,"name":"GRANDE SYNTHE","postalCode":"59760","inseeCode":"59271","lonX":2.290671943,"latY":51.016819728},{"id":10177,"name":"GRAND FORT PHILIPPE","postalCode":"59153","inseeCode":"59272","lonX":2.106192077,"latY":50.997196766},{"id":10178,"name":"GRAVELINES","postalCode":"59820","inseeCode":"59273","lonX":2.143781374,"latY":50.998216322},{"id":2875,"name":"LEFFRINCKOUCKE","postalCode":"59495","inseeCode":"59340","lonX":2.454194405,"latY":51.047882076},{"id":23440,"name":"LOON PLAGE","postalCode":"59279","inseeCode":"59359","lonX":2.215961102,"latY":51.005224907},{"id":27113,"name":"SPYCKER","postalCode":"59380","inseeCode":"59576","lonX":2.313537594,"latY":50.975470526},{"id":28863,"name":"ST GEORGES SUR L AA","postalCode":"59820","inseeCode":"59532","lonX":2.156709886,"latY":50.966742059},{"id":27123,"name":"TETEGHEM COUDEKERQUE VILLAGE","postalCode":"59229","inseeCode":"59588","lonX":2.44051131,"latY":51.007452814},{"id":28957,"name":"ZUYDCOOTE","postalCode":"59123","inseeCode":"59668","lonX":2.486570704,"latY":51.063734061}]