[{"id":19894,"name":"BASSE GOULAINE","postalCode":"44115","inseeCode":"44009","lonX":-1.462261066,"latY":47.212054775},{"id":19897,"name":"BOUAYE","postalCode":"44830","inseeCode":"44018","lonX":-1.673143847,"latY":47.14767047},{"id":19901,"name":"BOUGUENAIS","postalCode":"44340","inseeCode":"44020","lonX":-1.616657605,"latY":47.170674167},{"id":9007,"name":"BRAINS","postalCode":"44830","inseeCode":"44024","lonX":-1.726091938,"latY":47.170320147},{"id":19905,"name":"CARQUEFOU","postalCode":"44470","inseeCode":"44026","lonX":-1.472132601,"latY":47.301796359},{"id":19913,"name":"COUERON","postalCode":"44220","inseeCode":"44047","lonX":-1.73023246,"latY":47.230740563},{"id":9016,"name":"INDRE","postalCode":"44610","inseeCode":"44074","lonX":-1.671157283,"latY":47.198523375},{"id":1579,"name":"LA CHAPELLE SUR ERDRE","postalCode":"44240","inseeCode":"44035","lonX":-1.560425534,"latY":47.303106942},{"id":19936,"name":"LA MONTAGNE","postalCode":"44620","inseeCode":"44101","lonX":-1.683974378,"latY":47.184963288},{"id":9028,"name":"LE PELLERIN","postalCode":"44640","inseeCode":"44120","lonX":-1.826451481,"latY":47.22370063},{"id":19978,"name":"LES SORINIERES","postalCode":"44840","inseeCode":"44198","lonX":-1.519907421,"latY":47.141678907},{"id":9024,"name":"MAUVES SUR LOIRE","postalCode":"44470","inseeCode":"44094","lonX":-1.402853286,"latY":47.316052752},{"id":1591,"name":"NANTES","postalCode":"44000","inseeCode":"44109","lonX":-1.548204252,"latY":47.232046411},{"id":24519,"name":"ORVAULT","postalCode":"44700","inseeCode":"44114","lonX":-1.6230095,"latY":47.274418346},{"id":19953,"name":"REZE","postalCode":"44400","inseeCode":"44143","lonX":-1.550014499,"latY":47.176656359},{"id":19975,"name":"SAUTRON","postalCode":"44880","inseeCode":"44194","lonX":-1.680438633,"latY":47.273524843},{"id":19957,"name":"ST AIGNAN GRANDLIEU","postalCode":"44860","inseeCode":"44150","lonX":-1.623470086,"latY":47.132884121},{"id":24556,"name":"STE LUCE SUR LOIRE","postalCode":"44980","inseeCode":"44172","lonX":-1.472778353,"latY":47.253530109},{"id":9035,"name":"ST HERBLAIN","postalCode":"44800","inseeCode":"44162","lonX":-1.6340884,"latY":47.224879732},{"id":23121,"name":"ST JEAN DE BOISEAU","postalCode":"44640","inseeCode":"44166","lonX":-1.718883658,"latY":47.193743406},{"id":24553,"name":"ST LEGER LES VIGNES","postalCode":"44710","inseeCode":"44171","lonX":-1.714483568,"latY":47.143428145},{"id":19972,"name":"ST SEBASTIEN SUR LOIRE","postalCode":"44230","inseeCode":"44190","lonX":-1.499733879,"latY":47.203015543},{"id":9041,"name":"THOUARE SUR LOIRE","postalCode":"44470","inseeCode":"44204","lonX":-1.432053816,"latY":47.276161082},{"id":1614,"name":"VERTOU","postalCode":"44120","inseeCode":"44215","lonX":-1.470621633,"latY":47.160424591}]