[{"id":3855,"name":"ALBIGNY SUR SAONE","postalCode":"69250","inseeCode":"69003","lonX":4.830633796,"latY":45.864099485},{"id":11218,"name":"BRON","postalCode":"69500","inseeCode":"69029","lonX":4.911944142,"latY":45.734677772},{"id":3864,"name":"CAILLOUX SUR FONTAINES","postalCode":"69270","inseeCode":"69033","lonX":4.884023823,"latY":45.860350893},{"id":3865,"name":"CALUIRE ET CUIRE","postalCode":"69300","inseeCode":"69034","lonX":4.85160388,"latY":45.79764558},{"id":3866,"name":"CHAMPAGNE AU MONT D OR","postalCode":"69410","inseeCode":"69040","lonX":4.786555716,"latY":45.798370105},{"id":11221,"name":"CHARBONNIERES LES BAINS","postalCode":"69260","inseeCode":"69044","lonX":4.743248388,"latY":45.780108492},{"id":32552,"name":"CHARLY","postalCode":"69390","inseeCode":"69046","lonX":4.790358557,"latY":45.650878986},{"id":11264,"name":"CHASSIEU","postalCode":"69680","inseeCode":"69271","lonX":4.962276664,"latY":45.738130623},{"id":26210,"name":"COLLONGES AU MONT D OR","postalCode":"69660","inseeCode":"69063","lonX":4.842592936,"latY":45.822089693},{"id":32633,"name":"CORBAS","postalCode":"69960","inseeCode":"69273","lonX":4.908524891,"latY":45.668354577},{"id":32556,"name":"COUZON AU MONT D OR","postalCode":"69270","inseeCode":"69068","lonX":4.821760183,"latY":45.847972706},{"id":11226,"name":"CRAPONNE","postalCode":"69290","inseeCode":"69069","lonX":4.726884517,"latY":45.746008055},{"id":30594,"name":"CURIS AU MONT D OR","postalCode":"69250","inseeCode":"69071","lonX":4.818360729,"latY":45.869185891},{"id":30598,"name":"DARDILLY","postalCode":"69570","inseeCode":"69072","lonX":4.746912819,"latY":45.812193057},{"id":3916,"name":"DECINES CHARPIEU","postalCode":"69150","inseeCode":"69275","lonX":4.961706481,"latY":45.771999327},{"id":30602,"name":"ECULLY","postalCode":"69130","inseeCode":"69081","lonX":4.772636694,"latY":45.781880399},{"id":30772,"name":"FEYZIN","postalCode":"69320","inseeCode":"69276","lonX":4.857955606,"latY":45.673319126},{"id":3873,"name":"FLEURIEU SUR SAONE","postalCode":"69250","inseeCode":"69085","lonX":4.850877108,"latY":45.859387314},{"id":3874,"name":"FONTAINES ST MARTIN","postalCode":"69270","inseeCode":"69087","lonX":4.85446315,"latY":45.843200724},{"id":30606,"name":"FONTAINES SUR SAONE","postalCode":"69270","inseeCode":"69088","lonX":4.856323554,"latY":45.82844712},{"id":26224,"name":"FRANCHEVILLE","postalCode":"69340","inseeCode":"69089","lonX":4.756225335,"latY":45.738012994},{"id":26328,"name":"GENAY","postalCode":"69730","inseeCode":"69278","lonX":4.837939143,"latY":45.898298373},{"id":11233,"name":"GIVORS","postalCode":"69700","inseeCode":"69091","lonX":4.757971049,"latY":45.581348886},{"id":32564,"name":"GRIGNY","postalCode":"69520","inseeCode":"69096","lonX":4.787169917,"latY":45.608600369},{"id":32570,"name":"IRIGNY","postalCode":"69540","inseeCode":"69100","lonX":4.817932221,"latY":45.674938568},{"id":26332,"name":"JONAGE","postalCode":"69330","inseeCode":"69279","lonX":5.041463261,"latY":45.79118854},{"id":32584,"name":"LA MULATIERE","postalCode":"69350","inseeCode":"69142","lonX":4.812668277,"latY":45.730157748},{"id":3909,"name":"LA TOUR DE SALVAGNY","postalCode":"69890","inseeCode":"69250","lonX":4.71232432,"latY":45.810291539},{"id":3882,"name":"LIMONEST","postalCode":"69760","inseeCode":"69116","lonX":4.771193453,"latY":45.830939417},{"id":3883,"name":"LISSIEU","postalCode":"69380","inseeCode":"69117","lonX":4.745323925,"latY":45.855181406},{"id":11236,"name":"MARCY L ETOILE","postalCode":"69280","inseeCode":"69127","lonX":4.711446099,"latY":45.785004504},{"id":32637,"name":"MEYZIEU","postalCode":"69330","inseeCode":"69282","lonX":5.006312182,"latY":45.77726066},{"id":32639,"name":"MIONS","postalCode":"69780","inseeCode":"69283","lonX":4.948952689,"latY":45.665115911},{"id":3917,"name":"MONTANAY","postalCode":"69250","inseeCode":"69284","lonX":4.867604817,"latY":45.877294877},{"id":32586,"name":"NEUVILLE SUR SAONE","postalCode":"69250","inseeCode":"69143","lonX":4.844217105,"latY":45.883441309},{"id":26265,"name":"OULLINS","postalCode":"69600","inseeCode":"69149","lonX":4.80313113,"latY":45.715278722},{"id":11241,"name":"POLEYMIEUX AU MONT D OR","postalCode":"69250","inseeCode":"69153","lonX":4.794530328,"latY":45.855494343},{"id":3892,"name":"QUINCIEUX","postalCode":"69650","inseeCode":"69163","lonX":4.773649874,"latY":45.914085436},{"id":11267,"name":"RILLIEUX LA PAPE","postalCode":"69140","inseeCode":"69286","lonX":4.898844402,"latY":45.820433321},{"id":32601,"name":"ROCHETAILLEE SUR SAONE","postalCode":"69270","inseeCode":"69168","lonX":4.838721676,"latY":45.843652379},{"id":26339,"name":"SATHONAY CAMP","postalCode":"69580","inseeCode":"69292","lonX":4.874576569,"latY":45.825864338},{"id":30782,"name":"SATHONAY VILLAGE","postalCode":"69580","inseeCode":"69293","lonX":4.886160333,"latY":45.840371245},{"id":11269,"name":"SOLAIZE","postalCode":"69360","inseeCode":"69296","lonX":4.838246896,"latY":45.645911616},{"id":32611,"name":"ST CYR AU MONT D OR","postalCode":"69450","inseeCode":"69191","lonX":4.81819442,"latY":45.819266675},{"id":32613,"name":"ST DIDIER AU MONT D OR","postalCode":"69370","inseeCode":"69194","lonX":4.797844981,"latY":45.815089402},{"id":30719,"name":"STE FOY LES LYON","postalCode":"69110","inseeCode":"69202","lonX":4.793588761,"latY":45.735880577},{"id":30716,"name":"ST FONS","postalCode":"69190","inseeCode":"69199","lonX":4.850533111,"latY":45.701522001},{"id":11252,"name":"ST GENIS LAVAL","postalCode":"69230","inseeCode":"69204","lonX":4.789348057,"latY":45.694326262},{"id":3899,"name":"ST GENIS LES OLLIERES","postalCode":"69290","inseeCode":"69205","lonX":4.726879624,"latY":45.761314852},{"id":30723,"name":"ST GERMAIN AU MONT D OR","postalCode":"69650","inseeCode":"69207","lonX":4.800991918,"latY":45.882741728},{"id":26336,"name":"ST PRIEST","postalCode":"69800","inseeCode":"69290","lonX":4.94891136,"latY":45.701762679},{"id":30747,"name":"ST ROMAIN AU MONT D OR","postalCode":"69270","inseeCode":"69233","lonX":4.820109753,"latY":45.835578865},{"id":26314,"name":"TASSIN LA DEMI LUNE","postalCode":"69160","inseeCode":"69244","lonX":4.75488628,"latY":45.763030755},{"id":11259,"name":"VAULX EN VELIN","postalCode":"69120","inseeCode":"69256","lonX":4.926642064,"latY":45.786104103},{"id":11260,"name":"VENISSIEUX","postalCode":"69200","inseeCode":"69259","lonX":4.881206959,"latY":45.7042614},{"id":3913,"name":"VERNAISON","postalCode":"69390","inseeCode":"69260","lonX":4.809584313,"latY":45.649501128},{"id":11262,"name":"VILLEURBANNE","postalCode":"69100","inseeCode":"69266","lonX":4.889070834,"latY":45.770996568}]