[{"id":8021,"name":"AIGREFEUILLE","postalCode":"31280","inseeCode":"31003","lonX":1.585167634,"latY":43.56919333},{"id":21599,"name":"AUCAMVILLE","postalCode":"31140","inseeCode":"31022","lonX":1.423339488,"latY":43.671098898},{"id":17994,"name":"AUSSONNE","postalCode":"31840","inseeCode":"31032","lonX":1.328602945,"latY":43.683896724},{"id":20340,"name":"BALMA","postalCode":"31130","inseeCode":"31044","lonX":1.504681785,"latY":43.611071117},{"id":18001,"name":"BEAUPUY","postalCode":"31850","inseeCode":"31053","lonX":1.559058438,"latY":43.652602564},{"id":21614,"name":"BEAUZELLE","postalCode":"31700","inseeCode":"31056","lonX":1.37410331,"latY":43.667078899},{"id":538,"name":"BLAGNAC","postalCode":"31700","inseeCode":"31069","lonX":1.3798448,"latY":43.641575751},{"id":8039,"name":"BRAX","postalCode":"31490","inseeCode":"31088","lonX":1.232855828,"latY":43.615121247},{"id":21628,"name":"BRUGUIERES","postalCode":"31150","inseeCode":"31091","lonX":1.409188331,"latY":43.72674349},{"id":18034,"name":"CASTELGINEST","postalCode":"31780","inseeCode":"31116","lonX":1.435210408,"latY":43.69744187},{"id":8049,"name":"COLOMIERS","postalCode":"31770","inseeCode":"31149","lonX":1.326965447,"latY":43.611715384},{"id":18054,"name":"CORNEBARRIEU","postalCode":"31700","inseeCode":"31150","lonX":1.322457788,"latY":43.648786091},{"id":18057,"name":"CUGNAUX","postalCode":"31270","inseeCode":"31157","lonX":1.34315827,"latY":43.544855875},{"id":21667,"name":"DREMIL LAFAGE","postalCode":"31280","inseeCode":"31163","lonX":1.602797103,"latY":43.591306386},{"id":21688,"name":"FENOUILLET","postalCode":"31150","inseeCode":"31182","lonX":1.390572171,"latY":43.68432714},{"id":21690,"name":"FLOURENS","postalCode":"31130","inseeCode":"31184","lonX":1.553731069,"latY":43.597669415},{"id":557,"name":"FONBEAUZARD","postalCode":"31140","inseeCode":"31186","lonX":1.436282619,"latY":43.679741576},{"id":20409,"name":"GAGNAC SUR GARONNE","postalCode":"31150","inseeCode":"31205","lonX":1.363764293,"latY":43.707143814},{"id":572,"name":"GRATENTOUR","postalCode":"31150","inseeCode":"31230","lonX":1.434375266,"latY":43.720084345},{"id":21749,"name":"LAUNAGUET","postalCode":"31140","inseeCode":"31282","lonX":1.454892704,"latY":43.669403874},{"id":21753,"name":"LESPINASSE","postalCode":"31150","inseeCode":"31293","lonX":1.382497895,"latY":43.716174053},{"id":8129,"name":"L UNION","postalCode":"31240","inseeCode":"31561","lonX":1.483359348,"latY":43.65416268},{"id":598,"name":"MONDONVILLE","postalCode":"31700","inseeCode":"31351","lonX":1.2807981,"latY":43.663199142},{"id":8086,"name":"MONDOUZIL","postalCode":"31850","inseeCode":"31352","lonX":1.562823361,"latY":43.631236077},{"id":601,"name":"MONS","postalCode":"31280","inseeCode":"31355","lonX":1.573724387,"latY":43.610906587},{"id":608,"name":"MONTRABE","postalCode":"31850","inseeCode":"31389","lonX":1.528912213,"latY":43.642272374},{"id":8102,"name":"PIBRAC","postalCode":"31820","inseeCode":"31417","lonX":1.261194206,"latY":43.62773601},{"id":617,"name":"PIN BALMA","postalCode":"31130","inseeCode":"31418","lonX":1.535716824,"latY":43.622352466},{"id":620,"name":"QUINT FONSEGRIVES","postalCode":"31130","inseeCode":"31445","lonX":1.542910849,"latY":43.58130173},{"id":18187,"name":"SEILH","postalCode":"31840","inseeCode":"31541","lonX":1.356681491,"latY":43.689912607},{"id":21841,"name":"ST ALBAN","postalCode":"31140","inseeCode":"31467","lonX":1.412481931,"latY":43.692722272},{"id":20549,"name":"ST JEAN","postalCode":"31240","inseeCode":"31488","lonX":1.501307586,"latY":43.662938628},{"id":18165,"name":"ST JORY","postalCode":"31790","inseeCode":"31490","lonX":1.356794109,"latY":43.739176734},{"id":20566,"name":"ST ORENS DE GAMEVILLE","postalCode":"31650","inseeCode":"31506","lonX":1.535092787,"latY":43.559282151},{"id":640,"name":"TOULOUSE","postalCode":"31500","inseeCode":"31555","lonX":1.432094901,"latY":43.596037953},{"id":20584,"name":"TOURNEFEUILLE","postalCode":"31170","inseeCode":"31557","lonX":1.335058491,"latY":43.57832528},{"id":648,"name":"VILLENEUVE TOLOSANE","postalCode":"31270","inseeCode":"31588","lonX":1.346829105,"latY":43.526147728}]