[{"id":2808,"name":"AIX EN PEVELE","postalCode":"59310","inseeCode":"59004","lonX":3.305339428,"latY":50.497966562},{"id":2813,"name":"ATTICHES","postalCode":"59551","inseeCode":"59022","lonX":3.062132176,"latY":50.513359327},{"id":2815,"name":"AUCHY LEZ ORCHIES","postalCode":"59310","inseeCode":"59029","lonX":3.195203402,"latY":50.4807119},{"id":10140,"name":"AVELIN","postalCode":"59710","inseeCode":"59034","lonX":3.085767467,"latY":50.53985223},{"id":28515,"name":"BACHY","postalCode":"59830","inseeCode":"59042","lonX":3.268436568,"latY":50.543456761},{"id":26711,"name":"BERSEE","postalCode":"59235","inseeCode":"59071","lonX":3.150979299,"latY":50.480546432},{"id":23280,"name":"BEUVRY LA FORET","postalCode":"59310","inseeCode":"59080","lonX":3.282594417,"latY":50.44996479},{"id":26737,"name":"BOURGHELLES","postalCode":"59830","inseeCode":"59096","lonX":3.246823982,"latY":50.563544072},{"id":2827,"name":"BOUVIGNIES","postalCode":"59870","inseeCode":"59105","lonX":3.236753611,"latY":50.43244973},{"id":23314,"name":"CAMPHIN EN CAREMBAULT","postalCode":"59133","inseeCode":"59123","lonX":2.991658762,"latY":50.510623845},{"id":23317,"name":"CAMPHIN EN PEVELE","postalCode":"59780","inseeCode":"59124","lonX":3.258113671,"latY":50.592594068},{"id":28589,"name":"CAPPELLE EN PEVELE","postalCode":"59242","inseeCode":"59129","lonX":3.174121611,"latY":50.504698112},{"id":28609,"name":"CHEMY","postalCode":"59147","inseeCode":"59145","lonX":2.995447155,"latY":50.532149925},{"id":26760,"name":"COBRIEUX","postalCode":"59830","inseeCode":"59150","lonX":3.239807329,"latY":50.539159868},{"id":2842,"name":"COUTICHES","postalCode":"59310","inseeCode":"59158","lonX":3.194267261,"latY":50.449992078},{"id":23341,"name":"CYSOING","postalCode":"59830","inseeCode":"59168","lonX":3.214010036,"latY":50.564640886},{"id":23359,"name":"ENNEVELIN","postalCode":"59710","inseeCode":"59197","lonX":3.127817343,"latY":50.539122199},{"id":2864,"name":"GENECH","postalCode":"59242","inseeCode":"59258","lonX":3.222128834,"latY":50.528642451},{"id":28691,"name":"GONDECOURT","postalCode":"59147","inseeCode":"59266","lonX":2.980050258,"latY":50.547754519},{"id":23405,"name":"HERRIN","postalCode":"59147","inseeCode":"59304","lonX":2.963110989,"latY":50.549370265},{"id":23422,"name":"LANDAS","postalCode":"59310","inseeCode":"59330","lonX":3.29444532,"latY":50.47256495},{"id":23468,"name":"LA NEUVILLE","postalCode":"59239","inseeCode":"59427","lonX":3.053650351,"latY":50.496792176},{"id":2880,"name":"LOUVIL","postalCode":"59830","inseeCode":"59364","lonX":3.189629123,"latY":50.556365858},{"id":28776,"name":"MERIGNIES","postalCode":"59710","inseeCode":"59398","lonX":3.122025414,"latY":50.507026249},{"id":2894,"name":"MONCHEAUX","postalCode":"59283","inseeCode":"59408","lonX":3.088183342,"latY":50.457038499},{"id":28788,"name":"MONS EN PEVELE","postalCode":"59246","inseeCode":"59411","lonX":3.103348107,"latY":50.48212285},{"id":2896,"name":"MOUCHIN","postalCode":"59310","inseeCode":"59419","lonX":3.286269685,"latY":50.516630325},{"id":2900,"name":"NOMAIN","postalCode":"59310","inseeCode":"59435","lonX":3.238609693,"latY":50.501581448},{"id":2906,"name":"ORCHIES","postalCode":"59310","inseeCode":"59449","lonX":3.239055779,"latY":50.468760889},{"id":26984,"name":"OSTRICOURT","postalCode":"59162","inseeCode":"59452","lonX":3.033126719,"latY":50.457218433},{"id":2910,"name":"PHALEMPIN","postalCode":"59133","inseeCode":"59462","lonX":3.022449834,"latY":50.513410145},{"id":28815,"name":"PONT A MARCQ","postalCode":"59710","inseeCode":"59466","lonX":3.115052188,"latY":50.521539147},{"id":28879,"name":"SAMEON","postalCode":"59310","inseeCode":"59551","lonX":3.332809671,"latY":50.476123457},{"id":28901,"name":"TEMPLEUVE EN PEVELE","postalCode":"59242","inseeCode":"59586","lonX":3.17338972,"latY":50.532535047},{"id":10232,"name":"THUMERIES","postalCode":"59239","inseeCode":"59592","lonX":3.063455666,"latY":50.473558824},{"id":23551,"name":"TOURMIGNIES","postalCode":"59551","inseeCode":"59600","lonX":3.085136342,"latY":50.503966495},{"id":10241,"name":"WAHAGNIES","postalCode":"59261","inseeCode":"59630","lonX":3.029793344,"latY":50.483750462},{"id":27155,"name":"WANNEHAIN","postalCode":"59830","inseeCode":"59638","lonX":3.269389032,"latY":50.571279531}]