[{"id":23240,"name":"ARNEKE","postalCode":"59285","inseeCode":"59018","lonX":2.41838774,"latY":50.840877454},{"id":2819,"name":"BAILLEUL","postalCode":"59270","inseeCode":"59043","lonX":2.737584677,"latY":50.727433635},{"id":26699,"name":"BAVINCHOVE","postalCode":"59670","inseeCode":"59054","lonX":2.440424532,"latY":50.774762846},{"id":2825,"name":"BERTHEN","postalCode":"59270","inseeCode":"59073","lonX":2.68801721,"latY":50.77756542},{"id":10148,"name":"BLARINGHEM","postalCode":"59173","inseeCode":"59084","lonX":2.408713082,"latY":50.690018224},{"id":28540,"name":"BOESCHEPE","postalCode":"59299","inseeCode":"59086","lonX":2.698871283,"latY":50.799214832},{"id":23283,"name":"BOESEGHEM","postalCode":"59189","inseeCode":"59087","lonX":2.442462843,"latY":50.669459283},{"id":23286,"name":"BORRE","postalCode":"59190","inseeCode":"59091","lonX":2.581197175,"latY":50.731953494},{"id":28581,"name":"BUYSSCHEURE","postalCode":"59285","inseeCode":"59119","lonX":2.336249414,"latY":50.806581326},{"id":28585,"name":"CAESTRE","postalCode":"59190","inseeCode":"59120","lonX":2.606319274,"latY":50.756781735},{"id":2835,"name":"CASSEL","postalCode":"59670","inseeCode":"59135","lonX":2.494002217,"latY":50.795687128},{"id":2849,"name":"EBBLINGHEM","postalCode":"59173","inseeCode":"59184","lonX":2.418784166,"latY":50.734298588},{"id":26799,"name":"EECKE","postalCode":"59114","inseeCode":"59189","lonX":2.597329275,"latY":50.779946574},{"id":10171,"name":"FLETRE","postalCode":"59270","inseeCode":"59237","lonX":2.65072006,"latY":50.75520217},{"id":26847,"name":"GODEWAERSVELDE","postalCode":"59270","inseeCode":"59262","lonX":2.644999965,"latY":50.795012345},{"id":2868,"name":"HARDIFORT","postalCode":"59670","inseeCode":"59282","lonX":2.481235183,"latY":50.818592978},{"id":26871,"name":"HAZEBROUCK","postalCode":"59190","inseeCode":"59295","lonX":2.538569047,"latY":50.726087019},{"id":10184,"name":"HONDEGHEM","postalCode":"59190","inseeCode":"59308","lonX":2.515773483,"latY":50.755096171},{"id":10188,"name":"HOUTKERQUE","postalCode":"59470","inseeCode":"59318","lonX":2.58230483,"latY":50.882209056},{"id":10163,"name":"LE DOULIEU","postalCode":"59940","inseeCode":"59180","lonX":2.69908937,"latY":50.680063138},{"id":2882,"name":"LYNDE","postalCode":"59173","inseeCode":"59366","lonX":2.434647763,"latY":50.718693529},{"id":28780,"name":"MERRIS","postalCode":"59270","inseeCode":"59399","lonX":2.657324452,"latY":50.717946067},{"id":28783,"name":"METEREN","postalCode":"59270","inseeCode":"59401","lonX":2.676968942,"latY":50.74832943},{"id":2895,"name":"MORBECQUE","postalCode":"59190","inseeCode":"59416","lonX":2.536068879,"latY":50.67673372},{"id":26964,"name":"NEUF BERQUIN","postalCode":"59940","inseeCode":"59423","lonX":2.665020196,"latY":50.665434401},{"id":23474,"name":"NIEPPE","postalCode":"59850","inseeCode":"59431","lonX":2.832889912,"latY":50.699034889},{"id":28804,"name":"NOORDPEENE","postalCode":"59670","inseeCode":"59436","lonX":2.366816701,"latY":50.794564245},{"id":2905,"name":"OCHTEZEELE","postalCode":"59670","inseeCode":"59443","lonX":2.399853501,"latY":50.819112718},{"id":10211,"name":"OUDEZEELE","postalCode":"59670","inseeCode":"59453","lonX":2.510152461,"latY":50.839878436},{"id":26988,"name":"OXELAERE","postalCode":"59670","inseeCode":"59454","lonX":2.469899998,"latY":50.780216832},{"id":27008,"name":"PRADELLES","postalCode":"59190","inseeCode":"59469","lonX":2.603403413,"latY":50.734204605},{"id":28840,"name":"RENESCURE","postalCode":"59173","inseeCode":"59497","lonX":2.378449342,"latY":50.735444251},{"id":2918,"name":"RUBROUCK","postalCode":"59285","inseeCode":"59516","lonX":2.362196791,"latY":50.833364274},{"id":10228,"name":"SERCUS","postalCode":"59173","inseeCode":"59568","lonX":2.451440869,"latY":50.708278347},{"id":2933,"name":"STAPLE","postalCode":"59190","inseeCode":"59577","lonX":2.448040029,"latY":50.75275059},{"id":2934,"name":"STEENBECQUE","postalCode":"59189","inseeCode":"59578","lonX":2.488245551,"latY":50.677702448},{"id":28890,"name":"STEENVOORDE","postalCode":"59114","inseeCode":"59580","lonX":2.585458854,"latY":50.821494621},{"id":10230,"name":"STEENWERCK","postalCode":"59181","inseeCode":"59581","lonX":2.769484425,"latY":50.686870767},{"id":2922,"name":"STE MARIE CAPPEL","postalCode":"59670","inseeCode":"59536","lonX":2.515824542,"latY":50.780201277},{"id":28867,"name":"ST JANS CAPPEL","postalCode":"59270","inseeCode":"59535","lonX":2.722715096,"latY":50.768687751},{"id":28894,"name":"STRAZEELE","postalCode":"59270","inseeCode":"59582","lonX":2.619668938,"latY":50.723981187},{"id":28871,"name":"ST SYLVESTRE CAPPEL","postalCode":"59114","inseeCode":"59546","lonX":2.550604158,"latY":50.776203864},{"id":23542,"name":"TERDEGHEM","postalCode":"59114","inseeCode":"59587","lonX":2.554463314,"latY":50.798142115},{"id":10231,"name":"THIENNES","postalCode":"59189","inseeCode":"59590","lonX":2.476422388,"latY":50.65082368},{"id":23564,"name":"VIEUX BERQUIN","postalCode":"59232","inseeCode":"59615","lonX":2.619711625,"latY":50.693573011},{"id":10242,"name":"WALLON CAPPEL","postalCode":"59190","inseeCode":"59634","lonX":2.482325766,"latY":50.727130847},{"id":10245,"name":"WEMAERS CAPPEL","postalCode":"59670","inseeCode":"59655","lonX":2.441836541,"latY":50.814475585},{"id":2946,"name":"WINNEZEELE","postalCode":"59670","inseeCode":"59662","lonX":2.563458684,"latY":50.850245491},{"id":2947,"name":"ZERMEZEELE","postalCode":"59670","inseeCode":"59667","lonX":2.458833535,"latY":50.831870557},{"id":27171,"name":"ZUYTPEENE","postalCode":"59670","inseeCode":"59669","lonX":2.423572741,"latY":50.791606087}]