[{"name":"AVESNELLES","postalCode":"59440","inseeCode":"59035","display":"59440 - AVESNELLES"},{"name":"AVESNES SUR HELPE","postalCode":"59440","inseeCode":"59036","display":"59440 - AVESNES SUR HELPE"},{"name":"BAS LIEU","postalCode":"59440","inseeCode":"59050","display":"59440 - BAS LIEU"},{"name":"BEAUREPAIRE SUR SAMBRE","postalCode":"59550","inseeCode":"59061","display":"59550 - BEAUREPAIRE SUR SAMBRE"},{"name":"BEAURIEUX","postalCode":"59740","inseeCode":"59062","display":"59740 - BEAURIEUX"},{"name":"BERELLES","postalCode":"59740","inseeCode":"59066","display":"59740 - BERELLES"},{"name":"BEUGNIES","postalCode":"59216","inseeCode":"59078","display":"59216 - BEUGNIES"},{"name":"BOULOGNE SUR HELPE","postalCode":"59440","inseeCode":"59093","display":"59440 - BOULOGNE SUR HELPE"},{"name":"CARTIGNIES","postalCode":"59244","inseeCode":"59134","display":"59244 - CARTIGNIES"},{"name":"CHOISIES","postalCode":"59740","inseeCode":"59147","display":"59740 - CHOISIES"},{"name":"CLAIRFAYTS","postalCode":"59740","inseeCode":"59148","display":"59740 - CLAIRFAYTS"},{"name":"DAMOUSIES","postalCode":"59680","inseeCode":"59169","display":"59680 - DAMOUSIES"},{"name":"DIMECHAUX","postalCode":"59740","inseeCode":"59174","display":"59740 - DIMECHAUX"},{"name":"DIMONT","postalCode":"59216","inseeCode":"59175","display":"59216 - DIMONT"},{"name":"DOMPIERRE SUR HELPE","postalCode":"59440","inseeCode":"59177","display":"59440 - DOMPIERRE SUR HELPE"},{"name":"DOURLERS","postalCode":"59440","inseeCode":"59181","display":"59440 - DOURLERS"},{"name":"ECCLES","postalCode":"59740","inseeCode":"59186","display":"59740 - ECCLES"},{"name":"ETROEUNGT","postalCode":"59219","inseeCode":"59218","display":"59219 - ETROEUNGT"},{"name":"FELLERIES","postalCode":"59740","inseeCode":"59226","display":"59740 - FELLERIES"},{"name":"FLAUMONT WAUDRECHIES","postalCode":"59440","inseeCode":"59233","display":"59440 - FLAUMONT WAUDRECHIES"},{"name":"FLOURSIES","postalCode":"59440","inseeCode":"59240","display":"59440 - FLOURSIES"},{"name":"FLOYON","postalCode":"59219","inseeCode":"59241","display":"59219 - FLOYON"},{"name":"GRAND FAYT","postalCode":"59244","inseeCode":"59270","display":"59244 - GRAND FAYT"},{"name":"HAUT LIEU","postalCode":"59440","inseeCode":"59290","display":"59440 - HAUT LIEU"},{"name":"HESTRUD","postalCode":"59740","inseeCode":"59306","display":"59740 - HESTRUD"},{"name":"LAROUILLIES","postalCode":"59219","inseeCode":"59333","display":"59219 - LAROUILLIES"},{"name":"LEZ FONTAINE","postalCode":"59740","inseeCode":"59342","display":"59740 - LEZ FONTAINE"},{"name":"LIESSIES","postalCode":"59740","inseeCode":"59347","display":"59740 - LIESSIES"},{"name":"MARBAIX","postalCode":"59440","inseeCode":"59374","display":"59440 - MARBAIX"},{"name":"PETIT FAYT","postalCode":"59244","inseeCode":"59461","display":"59244 - PETIT FAYT"},{"name":"PRISCHES","postalCode":"59550","inseeCode":"59474","display":"59550 - PRISCHES"},{"name":"RAINSARS","postalCode":"59177","inseeCode":"59490","display":"59177 - RAINSARS"},{"name":"RAMOUSIES","postalCode":"59177","inseeCode":"59493","display":"59177 - RAMOUSIES"},{"name":"SAINS DU NORD","postalCode":"59177","inseeCode":"59525","display":"59177 - SAINS DU NORD"},{"name":"SARS POTERIES","postalCode":"59216","inseeCode":"59555","display":"59216 - SARS POTERIES"},{"name":"SEMERIES","postalCode":"59440","inseeCode":"59562","display":"59440 - SEMERIES"},{"name":"SEMOUSIES","postalCode":"59440","inseeCode":"59563","display":"59440 - SEMOUSIES"},{"name":"SOLRE LE CHATEAU","postalCode":"59740","inseeCode":"59572","display":"59740 - SOLRE LE CHATEAU"},{"name":"SOLRINNES","postalCode":"59740","inseeCode":"59573","display":"59740 - SOLRINNES"},{"name":"ST AUBIN","postalCode":"59440","inseeCode":"59529","display":"59440 - ST AUBIN"},{"name":"ST HILAIRE SUR HELPE","postalCode":"59440","inseeCode":"59534","display":"59440 - ST HILAIRE SUR HELPE"},{"name":"TAISNIERES EN THIERACHE","postalCode":"59550","inseeCode":"59583","display":"59550 - TAISNIERES EN THIERACHE"},{"name":"WATTIGNIES LA VICTOIRE","postalCode":"59680","inseeCode":"59649","display":"59680 - WATTIGNIES LA VICTOIRE"}]