[{"name":"AIBES","postalCode":"59149","inseeCode":"59003","display":"59149 - AIBES"},{"name":"ASSEVENT","postalCode":"59600","inseeCode":"59021","display":"59600 - ASSEVENT"},{"name":"AULNOYE AYMERIES","postalCode":"59620","inseeCode":"59033","display":"59620 - AULNOYE AYMERIES"},{"name":"BACHANT","postalCode":"59138","inseeCode":"59041","display":"59138 - BACHANT"},{"name":"BEAUFORT","postalCode":"59330","inseeCode":"59058","display":"59330 - BEAUFORT"},{"name":"BERLAIMONT","postalCode":"59145","inseeCode":"59068","display":"59145 - BERLAIMONT"},{"name":"BERSILLIES","postalCode":"59600","inseeCode":"59072","display":"59600 - BERSILLIES"},{"name":"BETTIGNIES","postalCode":"59600","inseeCode":"59076","display":"59600 - BETTIGNIES"},{"name":"BOUSIGNIES SUR ROC","postalCode":"59149","inseeCode":"59101","display":"59149 - BOUSIGNIES SUR ROC"},{"name":"BOUSSIERES SUR SAMBRE","postalCode":"59330","inseeCode":"59103","display":"59330 - BOUSSIERES SUR SAMBRE"},{"name":"BOUSSOIS","postalCode":"59168","inseeCode":"59104","display":"59168 - BOUSSOIS"},{"name":"CERFONTAINE","postalCode":"59680","inseeCode":"59142","display":"59680 - CERFONTAINE"},{"name":"COLLERET","postalCode":"59680","inseeCode":"59151","display":"59680 - COLLERET"},{"name":"COUSOLRE","postalCode":"59149","inseeCode":"59157","display":"59149 - COUSOLRE"},{"name":"ECLAIBES","postalCode":"59330","inseeCode":"59187","display":"59330 - ECLAIBES"},{"name":"ECUELIN","postalCode":"59620","inseeCode":"59188","display":"59620 - ECUELIN"},{"name":"ELESMES","postalCode":"59600","inseeCode":"59190","display":"59600 - ELESMES"},{"name":"FEIGNIES","postalCode":"59750","inseeCode":"59225","display":"59750 - FEIGNIES"},{"name":"FERRIERE LA GRANDE","postalCode":"59680","inseeCode":"59230","display":"59680 - FERRIERE LA GRANDE"},{"name":"FERRIERE LA PETITE","postalCode":"59680","inseeCode":"59231","display":"59680 - FERRIERE LA PETITE"},{"name":"GOGNIES CHAUSSEE","postalCode":"59600","inseeCode":"59264","display":"59600 - GOGNIES CHAUSSEE"},{"name":"HAUTMONT","postalCode":"59330","inseeCode":"59291","display":"59330 - HAUTMONT"},{"name":"JEUMONT","postalCode":"59460","inseeCode":"59324","display":"59460 - JEUMONT"},{"name":"LEVAL","postalCode":"59620","inseeCode":"59344","display":"59620 - LEVAL"},{"name":"LIMONT FONTAINE","postalCode":"59330","inseeCode":"59351","display":"59330 - LIMONT FONTAINE"},{"name":"LOUVROIL","postalCode":"59720","inseeCode":"59365","display":"59720 - LOUVROIL"},{"name":"MAIRIEUX","postalCode":"59600","inseeCode":"59370","display":"59600 - MAIRIEUX"},{"name":"MARPENT","postalCode":"59164","inseeCode":"59385","display":"59164 - MARPENT"},{"name":"MAUBEUGE","postalCode":"59600","inseeCode":"59392","display":"59600 - MAUBEUGE"},{"name":"MONCEAU ST WAAST","postalCode":"59620","inseeCode":"59406","display":"59620 - MONCEAU ST WAAST"},{"name":"NEUF MESNIL","postalCode":"59330","inseeCode":"59424","display":"59330 - NEUF MESNIL"},{"name":"NOYELLES SUR SAMBRE","postalCode":"59550","inseeCode":"59439","display":"59550 - NOYELLES SUR SAMBRE"},{"name":"OBRECHIES","postalCode":"59680","inseeCode":"59442","display":"59680 - OBRECHIES"},{"name":"PONT SUR SAMBRE","postalCode":"59138","inseeCode":"59467","display":"59138 - PONT SUR SAMBRE"},{"name":"QUIEVELON","postalCode":"59680","inseeCode":"59483","display":"59680 - QUIEVELON"},{"name":"RECQUIGNIES","postalCode":"59245","inseeCode":"59495","display":"59245 - RECQUIGNIES"},{"name":"ROUSIES","postalCode":"59131","inseeCode":"59514","display":"59131 - ROUSIES"},{"name":"SASSEGNIES","postalCode":"59145","inseeCode":"59556","display":"59145 - SASSEGNIES"},{"name":"ST REMY CHAUSSEE","postalCode":"59620","inseeCode":"59542","display":"59620 - ST REMY CHAUSSEE"},{"name":"ST REMY DU NORD","postalCode":"59330","inseeCode":"59543","display":"59330 - ST REMY DU NORD"},{"name":"VIEUX MESNIL","postalCode":"59138","inseeCode":"59617","display":"59138 - VIEUX MESNIL"},{"name":"VIEUX RENG","postalCode":"59600","inseeCode":"59618","display":"59600 - VIEUX RENG"},{"name":"VILLERS SIRE NICOLE","postalCode":"59600","inseeCode":"59627","display":"59600 - VILLERS SIRE NICOLE"}]