[{"name":"ANOR","postalCode":"59186","inseeCode":"59012","display":"59186 - ANOR"},{"name":"BAIVES","postalCode":"59132","inseeCode":"59045","display":"59132 - BAIVES"},{"name":"EPPE SAUVAGE","postalCode":"59132","inseeCode":"59198","display":"59132 - EPPE SAUVAGE"},{"name":"FERON","postalCode":"59610","inseeCode":"59229","display":"59610 - FERON"},{"name":"FOURMIES","postalCode":"59610","inseeCode":"59249","display":"59610 - FOURMIES"},{"name":"GLAGEON","postalCode":"59132","inseeCode":"59261","display":"59132 - GLAGEON"},{"name":"MOUSTIER EN FAGNE","postalCode":"59132","inseeCode":"59420","display":"59132 - MOUSTIER EN FAGNE"},{"name":"OHAIN","postalCode":"59132","inseeCode":"59445","display":"59132 - OHAIN"},{"name":"TRELON","postalCode":"59132","inseeCode":"59601","display":"59132 - TRELON"},{"name":"WALLERS EN FAGNE","postalCode":"59132","inseeCode":"59633","display":"59132 - WALLERS EN FAGNE"},{"name":"WIGNEHIES","postalCode":"59212","inseeCode":"59659","display":"59212 - WIGNEHIES"},{"name":"WILLIES","postalCode":"59740","inseeCode":"59661","display":"59740 - WILLIES"}]