[{"name":"BEAURAIN","postalCode":"59730","inseeCode":"59060","display":"59730 - BEAURAIN"},{"name":"BERMERAIN","postalCode":"59213","inseeCode":"59069","display":"59213 - BERMERAIN"},{"name":"CAPELLE","postalCode":"59213","inseeCode":"59127","display":"59213 - CAPELLE"},{"name":"ESCARMAIN","postalCode":"59213","inseeCode":"59204","display":"59213 - ESCARMAIN"},{"name":"HAUSSY","postalCode":"59294","inseeCode":"59289","display":"59294 - HAUSSY"},{"name":"MONTRECOURT","postalCode":"59227","inseeCode":"59415","display":"59227 - MONTRECOURT"},{"name":"ROMERIES","postalCode":"59730","inseeCode":"59506","display":"59730 - ROMERIES"},{"name":"SAULZOIR","postalCode":"59227","inseeCode":"59558","display":"59227 - SAULZOIR"},{"name":"SOLESMES","postalCode":"59730","inseeCode":"59571","display":"59730 - SOLESMES"},{"name":"SOMMAING","postalCode":"59213","inseeCode":"59575","display":"59213 - SOMMAING"},{"name":"ST MARTIN SUR ECAILLON","postalCode":"59213","inseeCode":"59537","display":"59213 - ST MARTIN SUR ECAILLON"},{"name":"ST PYTHON","postalCode":"59730","inseeCode":"59541","display":"59730 - ST PYTHON"},{"name":"VENDEGIES SUR ECAILLON","postalCode":"59213","inseeCode":"59608","display":"59213 - VENDEGIES SUR ECAILLON"},{"name":"VERTAIN","postalCode":"59730","inseeCode":"59612","display":"59730 - VERTAIN"},{"name":"VIESLY","postalCode":"59271","inseeCode":"59614","display":"59271 - VIESLY"}]