[{"name":"AVESNES LES AUBERT","postalCode":"59129","inseeCode":"59037","display":"59129 - AVESNES LES AUBERT"},{"name":"BAZUEL","postalCode":"59360","inseeCode":"59055","display":"59360 - BAZUEL"},{"name":"BEAUMONT EN CAMBRESIS","postalCode":"59540","inseeCode":"59059","display":"59540 - BEAUMONT EN CAMBRESIS"},{"name":"BEAUVOIS EN CAMBRESIS","postalCode":"59157","inseeCode":"59063","display":"59157 - BEAUVOIS EN CAMBRESIS"},{"name":"BERTRY","postalCode":"59980","inseeCode":"59074","display":"59980 - BERTRY"},{"name":"BETHENCOURT","postalCode":"59540","inseeCode":"59075","display":"59540 - BETHENCOURT"},{"name":"BEVILLERS","postalCode":"59217","inseeCode":"59081","display":"59217 - BEVILLERS"},{"name":"BOUSSIERES EN CAMBRESIS","postalCode":"59217","inseeCode":"59102","display":"59217 - BOUSSIERES EN CAMBRESIS"},{"name":"BRIASTRE","postalCode":"59730","inseeCode":"59108","display":"59730 - BRIASTRE"},{"name":"BUSIGNY","postalCode":"59137","inseeCode":"59118","display":"59137 - BUSIGNY"},{"name":"CARNIERES","postalCode":"59217","inseeCode":"59132","display":"59217 - CARNIERES"},{"name":"CATILLON SUR SAMBRE","postalCode":"59360","inseeCode":"59137","display":"59360 - CATILLON SUR SAMBRE"},{"name":"CATTENIERES","postalCode":"59217","inseeCode":"59138","display":"59217 - CATTENIERES"},{"name":"CAUDRY","postalCode":"59540","inseeCode":"59139","display":"59540 - CAUDRY"},{"name":"CAULLERY","postalCode":"59191","inseeCode":"59140","display":"59191 - CAULLERY"},{"name":"CLARY","postalCode":"59225","inseeCode":"59149","display":"59225 - CLARY"},{"name":"DEHERIES","postalCode":"59127","inseeCode":"59171","display":"59127 - DEHERIES"},{"name":"ELINCOURT","postalCode":"59127","inseeCode":"59191","display":"59127 - ELINCOURT"},{"name":"ESTOURMEL","postalCode":"59400","inseeCode":"59213","display":"59400 - ESTOURMEL"},{"name":"FONTAINE AU PIRE","postalCode":"59157","inseeCode":"59243","display":"59157 - FONTAINE AU PIRE"},{"name":"HAUCOURT EN CAMBRESIS","postalCode":"59191","inseeCode":"59287","display":"59191 - HAUCOURT EN CAMBRESIS"},{"name":"HONNECHY","postalCode":"59980","inseeCode":"59311","display":"59980 - HONNECHY"},{"name":"INCHY","postalCode":"59540","inseeCode":"59321","display":"59540 - INCHY"},{"name":"LA GROISE","postalCode":"59360","inseeCode":"59274","display":"59360 - LA GROISE"},{"name":"LE CATEAU CAMBRESIS","postalCode":"59360","inseeCode":"59136","display":"59360 - LE CATEAU CAMBRESIS"},{"name":"LIGNY EN CAMBRESIS","postalCode":"59191","inseeCode":"59349","display":"59191 - LIGNY EN CAMBRESIS"},{"name":"MALINCOURT","postalCode":"59127","inseeCode":"59372","display":"59127 - MALINCOURT"},{"name":"MARETZ","postalCode":"59238","inseeCode":"59382","display":"59238 - MARETZ"},{"name":"MAUROIS","postalCode":"59980","inseeCode":"59394","display":"59980 - MAUROIS"},{"name":"MAZINGHIEN","postalCode":"59360","inseeCode":"59395","display":"59360 - MAZINGHIEN"},{"name":"MONTAY","postalCode":"59360","inseeCode":"59412","display":"59360 - MONTAY"},{"name":"MONTIGNY EN CAMBRESIS","postalCode":"59225","inseeCode":"59413","display":"59225 - MONTIGNY EN CAMBRESIS"},{"name":"NEUVILLY","postalCode":"59360","inseeCode":"59430","display":"59360 - NEUVILLY"},{"name":"ORS","postalCode":"59360","inseeCode":"59450","display":"59360 - ORS"},{"name":"POMMEREUIL","postalCode":"59360","inseeCode":"59465","display":"59360 - POMMEREUIL"},{"name":"QUIEVY","postalCode":"59214","inseeCode":"59485","display":"59214 - QUIEVY"},{"name":"REJET DE BEAULIEU","postalCode":"59360","inseeCode":"59496","display":"59360 - REJET DE BEAULIEU"},{"name":"REUMONT","postalCode":"59980","inseeCode":"59498","display":"59980 - REUMONT"},{"name":"ST AUBERT","postalCode":"59188","inseeCode":"59528","display":"59188 - ST AUBERT"},{"name":"ST BENIN","postalCode":"59360","inseeCode":"59531","display":"59360 - ST BENIN"},{"name":"ST HILAIRE LEZ CAMBRAI","postalCode":"59292","inseeCode":"59533","display":"59292 - ST HILAIRE LEZ CAMBRAI"},{"name":"ST SOUPLET","postalCode":"59360","inseeCode":"59545","display":"59360 - ST SOUPLET"},{"name":"ST VAAST EN CAMBRESIS","postalCode":"59188","inseeCode":"59547","display":"59188 - ST VAAST EN CAMBRESIS"},{"name":"TROISVILLES","postalCode":"59980","inseeCode":"59604","display":"59980 - TROISVILLES"},{"name":"VILLERS OUTREAUX","postalCode":"59142","inseeCode":"59624","display":"59142 - VILLERS OUTREAUX"},{"name":"WALINCOURT SELVIGNY","postalCode":"59127","inseeCode":"59631","display":"59127 - WALINCOURT SELVIGNY"}]