[{"name":"ACQUIGNY","postalCode":"27400","inseeCode":"27003","display":"27400 - ACQUIGNY"},{"name":"AILLY","postalCode":"27600","inseeCode":"27005","display":"27600 - AILLY"},{"name":"ALIZAY","postalCode":"27460","inseeCode":"27008","display":"27460 - ALIZAY"},{"name":"AMFREVILLE SOUS LES MONTS","postalCode":"27380","inseeCode":"27013","display":"27380 - AMFREVILLE SOUS LES MONTS"},{"name":"AMFREVILLE SUR ITON","postalCode":"27400","inseeCode":"27014","display":"27400 - AMFREVILLE SUR ITON"},{"name":"ANDE","postalCode":"27430","inseeCode":"27015","display":"27430 - ANDE"},{"name":"AUTHEUIL AUTHOUILLET","postalCode":"27490","inseeCode":"27025","display":"27490 - AUTHEUIL AUTHOUILLET"},{"name":"CAILLY SUR EURE","postalCode":"27490","inseeCode":"27124","display":"27490 - CAILLY SUR EURE"},{"name":"CHAMPENARD","postalCode":"27600","inseeCode":"27142","display":"27600 - CHAMPENARD"},{"name":"CLEF VALLEE D EURE","postalCode":"27490","inseeCode":"27191","display":"27490 - CLEF VALLEE D EURE"},{"name":"CONNELLES","postalCode":"27430","inseeCode":"27168","display":"27430 - CONNELLES"},{"name":"COURCELLES SUR SEINE","postalCode":"27940","inseeCode":"27180","display":"27940 - COURCELLES SUR SEINE"},{"name":"CRASVILLE","postalCode":"27400","inseeCode":"27184","display":"27400 - CRASVILLE"},{"name":"CRIQUEBEUF SUR SEINE","postalCode":"27340","inseeCode":"27188","display":"27340 - CRIQUEBEUF SUR SEINE"},{"name":"FONTAINE BELLENGER","postalCode":"27600","inseeCode":"27249","display":"27600 - FONTAINE BELLENGER"},{"name":"GAILLON","postalCode":"27600","inseeCode":"27275","display":"27600 - GAILLON"},{"name":"HERQUEVILLE","postalCode":"27430","inseeCode":"27330","display":"27430 - HERQUEVILLE"},{"name":"HEUDEBOUVILLE","postalCode":"27400","inseeCode":"27332","display":"27400 - HEUDEBOUVILLE"},{"name":"HEUDREVILLE SUR EURE","postalCode":"27400","inseeCode":"27335","display":"27400 - HEUDREVILLE SUR EURE"},{"name":"IGOVILLE","postalCode":"27460","inseeCode":"27348","display":"27460 - IGOVILLE"},{"name":"INCARVILLE","postalCode":"27400","inseeCode":"27351","display":"27400 - INCARVILLE"},{"name":"LA HARENGERE","postalCode":"27370","inseeCode":"27313","display":"27370 - LA HARENGERE"},{"name":"LA HAYE LE COMTE","postalCode":"27400","inseeCode":"27321","display":"27400 - LA HAYE LE COMTE"},{"name":"LA HAYE MALHERBE","postalCode":"27400","inseeCode":"27322","display":"27400 - LA HAYE MALHERBE"},{"name":"LA SAUSSAYE","postalCode":"27370","inseeCode":"27616","display":"27370 - LA SAUSSAYE"},{"name":"LA VACHERIE","postalCode":"27400","inseeCode":"27666","display":"27400 - LA VACHERIE"},{"name":"LE BEC THOMAS","postalCode":"27370","inseeCode":"27053","display":"27370 - LE BEC THOMAS"},{"name":"LE MANOIR","postalCode":"27460","inseeCode":"27386","display":"27460 - LE MANOIR"},{"name":"LE MESNIL JOURDAIN","postalCode":"27400","inseeCode":"27403","display":"27400 - LE MESNIL JOURDAIN"},{"name":"LERY","postalCode":"27690","inseeCode":"27365","display":"27690 - LERY"},{"name":"LES DAMPS","postalCode":"27340","inseeCode":"27196","display":"27340 - LES DAMPS"},{"name":"LE VAL D HAZEY","postalCode":"27600","inseeCode":"27022","display":"27600 - LE VAL D HAZEY"},{"name":"LE VAUDREUIL","postalCode":"27100","inseeCode":"27528","display":"27100 - LE VAUDREUIL"},{"name":"LOUVIERS","postalCode":"27400","inseeCode":"27375","display":"27400 - LOUVIERS"},{"name":"MANDEVILLE","postalCode":"27370","inseeCode":"27382","display":"27370 - MANDEVILLE"},{"name":"MARTOT","postalCode":"27340","inseeCode":"27394","display":"27340 - MARTOT"},{"name":"PINTERVILLE","postalCode":"27400","inseeCode":"27456","display":"27400 - PINTERVILLE"},{"name":"PITRES","postalCode":"27590","inseeCode":"27458","display":"27590 - PITRES"},{"name":"PONT DE L ARCHE","postalCode":"27340","inseeCode":"27469","display":"27340 - PONT DE L ARCHE"},{"name":"PORTE DE SEINE","postalCode":"27430","inseeCode":"27471","display":"27430 - PORTE DE SEINE"},{"name":"POSES","postalCode":"27740","inseeCode":"27474","display":"27740 - POSES"},{"name":"QUATREMARE","postalCode":"27400","inseeCode":"27483","display":"27400 - QUATREMARE"},{"name":"ST AUBIN SUR GAILLON","postalCode":"27600","inseeCode":"27517","display":"27600 - ST AUBIN SUR GAILLON"},{"name":"ST CYR LA CAMPAGNE","postalCode":"27370","inseeCode":"27529","display":"27370 - ST CYR LA CAMPAGNE"},{"name":"ST DIDIER DES BOIS","postalCode":"27370","inseeCode":"27534","display":"27370 - ST DIDIER DES BOIS"},{"name":"ST ETIENNE DU VAUVRAY","postalCode":"27430","inseeCode":"27537","display":"27430 - ST ETIENNE DU VAUVRAY"},{"name":"ST ETIENNE SOUS BAILLEUL","postalCode":"27920","inseeCode":"27539","display":"27920 - ST ETIENNE SOUS BAILLEUL"},{"name":"ST GERMAIN DE PASQUIER","postalCode":"27370","inseeCode":"27545","display":"27370 - ST GERMAIN DE PASQUIER"},{"name":"ST JULIEN DE LA LIEGUE","postalCode":"27600","inseeCode":"27553","display":"27600 - ST JULIEN DE LA LIEGUE"},{"name":"ST PIERRE DE BAILLEUL","postalCode":"27920","inseeCode":"27589","display":"27920 - ST PIERRE DE BAILLEUL"},{"name":"ST PIERRE DU VAUVRAY","postalCode":"27430","inseeCode":"27598","display":"27430 - ST PIERRE DU VAUVRAY"},{"name":"ST PIERRE LA GARENNE","postalCode":"27600","inseeCode":"27599","display":"27600 - ST PIERRE LA GARENNE"},{"name":"SURTAUVILLE","postalCode":"27400","inseeCode":"27623","display":"27400 - SURTAUVILLE"},{"name":"SURVILLE","postalCode":"27400","inseeCode":"27624","display":"27400 - SURVILLE"},{"name":"TERRES DE BORD","postalCode":"27340","inseeCode":"27412","display":"27340 - TERRES DE BORD"},{"name":"VAL DE REUIL","postalCode":"27100","inseeCode":"27701","display":"27100 - VAL DE REUIL"},{"name":"VILLERS SUR LE ROULE","postalCode":"27940","inseeCode":"27691","display":"27940 - VILLERS SUR LE ROULE"},{"name":"VIRONVAY","postalCode":"27400","inseeCode":"27697","display":"27400 - VIRONVAY"},{"name":"VRAIVILLE","postalCode":"27370","inseeCode":"27700","display":"27370 - VRAIVILLE"}]